[
  {
    "name": "St Andrews Church",
    "group": "A DESIGN FOR LIVING",
    "floor": "Rectory Basement",
    "postcode": 10007,
    "wheelChair": false,
    "zone": 1,
    "location": "20 CARDINAL HAYES PL New York NY ",
    "lat": "40.7132597018695",
    "lng": "-74.0023994478748"
  },
  {
    "name": "St. Andrew's Church",
    "group": "CHAMBERS STREET",
    "floor": "Enter through driveway behind Church.",
    "postcode": 10007,
    "wheelChair": false,
    "zone": 1,
    "location": "20 CARDINAL HAYES PL New York NY ",
    "lat": "40.7132597018695",
    "lng": "-74.0023994478748"
  },
  {
    "name": "Church of the Transfiguration",
    "group": "CHINATOWN",
    "floor": "Basement",
    "postcode": 10013,
    "wheelChair": false,
    "zone": 1,
    "location": "29 MOTT ST New York NY ",
    "lat": "40.7148",
    "lng": "-73.999"
  },
  {
    "name": "St. Margaret's Residence",
    "group": "DOWNTOWN",
    "floor": "1st Floor Library",
    "postcode": 10038,
    "wheelChair": true,
    "zone": 1,
    "location": "49 FULTON ST New York NY ",
    "lat": "40.708",
    "lng": "-74.0042"
  },
  {
    "name": "",
    "group": "EXCHANGE VIEWS",
    "floor": "",
    "postcode": 10038,
    "wheelChair": false,
    "zone": 1,
    "location": "44 JOHN ST New York NY ",
    "lat": "40.7092",
    "lng": "-74.0081"
  },
  {
    "name": "",
    "group": "EXCHANGE VIEWS",
    "floor": "",
    "postcode": 10038,
    "wheelChair": true,
    "zone": 1,
    "location": "49 FULTON ST New York NY ",
    "lat": "40.708",
    "lng": "-74.0042"
  },
  {
    "name": "St. Andrew's Church",
    "group": "FRIDAY DOWNTOWN",
    "floor": "Enter thru driveway behind Church.",
    "postcode": 10007,
    "wheelChair": true,
    "zone": 1,
    "location": "20 CARDINAL HAYES PL New York NY ",
    "lat": "40.7133",
    "lng": "-74.0024"
  },
  {
    "name": "St. Peter's Church",
    "group": "GATEWAY",
    "floor": "",
    "postcode": null,
    "wheelChair": false,
    "zone": 1,
    "location": "22 BARCLAY ST New York NY ",
    "lat": "40.7125098758043",
    "lng": "-74.0094653605709"
  },
  {
    "name": "St. Andrew's Church",
    "group": "PASSING THE BAR",
    "floor": "Enter thru driveway behind Church.",
    "postcode": 10007,
    "wheelChair": true,
    "zone": 1,
    "location": "20 CARDINAL HAYES PL New York NY ",
    "lat": "40.7133",
    "lng": "-74.0024"
  },
  {
    "name": "Saint Peter's Church",
    "group": "S.O.B.E.R.",
    "floor": "",
    "postcode": 10007,
    "wheelChair": false,
    "zone": 1,
    "location": "22 BARCLAY ST New York NY ",
    "lat": "40.7125",
    "lng": "-74.0095"
  },
  {
    "name": "Hazelden Tribeca",
    "group": "SANE AND SOBER",
    "floor": "",
    "postcode": 10013,
    "wheelChair": true,
    "zone": 1,
    "location": "283 W BROADWAY New York NY ",
    "lat": "40.7208",
    "lng": "-74.0049"
  },
  {
    "name": "Municipal Union Bldg DC 37",
    "group": "SATURDAY AFTERNOON DISCUSSION",
    "floor": "",
    "postcode": 10007,
    "wheelChair": false,
    "zone": 1,
    "location": "125 BARCLAY ST New York NY ",
    "lat": "40.7143559829254",
    "lng": "-74.0130165248683"
  },
  {
    "name": "St. Margaret's House",
    "group": "SEAMEN'S GROUP",
    "floor": "Conference Room #1",
    "postcode": 10038,
    "wheelChair": true,
    "zone": 1,
    "location": "49 FULTON ST New York NY ",
    "lat": "40.708",
    "lng": "-74.0042"
  },
  {
    "name": "St. Margaret's House",
    "group": "SEAPORT",
    "floor": "",
    "postcode": 10038,
    "wheelChair": true,
    "zone": 1,
    "location": "49 FULTON ST New York NY ",
    "lat": "40.7080475730195",
    "lng": "-74.0042375398091"
  },
  {
    "name": "Church of Saint Andrew",
    "group": "TOWER",
    "floor": "",
    "postcode": 10007,
    "wheelChair": false,
    "zone": 1,
    "location": "20 CARDINAL HAYES PL New York NY ",
    "lat": "40.7133",
    "lng": "-74.0024"
  },
  {
    "name": "Tribeca 12 Building",
    "group": "TRIANGLE GROUP",
    "floor": "",
    "postcode": 10013,
    "wheelChair": true,
    "zone": 1,
    "location": "283 W BROADWAY New York NY ",
    "lat": "40.7208247814361",
    "lng": "-74.0048537254953"
  },
  {
    "name": "",
    "group": "TRIBECA GROUP",
    "floor": "",
    "postcode": 10038,
    "wheelChair": true,
    "zone": 1,
    "location": "49 FULTON ST New York NY ",
    "lat": "40.708",
    "lng": "-74.0042"
  },
  {
    "name": "St. Peter's Church",
    "group": "TRIBECA GROUP",
    "floor": "",
    "postcode": 10006,
    "wheelChair": false,
    "zone": 1,
    "location": "22 BARCLAY ST New York NY ",
    "lat": "40.7125",
    "lng": "-74.0095"
  },
  {
    "name": "St. Andrew's Church",
    "group": "WOMEN'S DOWNTOWN AA STEP MEETING",
    "floor": "",
    "postcode": 10007,
    "wheelChair": false,
    "zone": 1,
    "location": "20 CARDINAL HAYES PL New York NY ",
    "lat": "40.7133",
    "lng": "-74.0024"
  },
  {
    "name": "Hazelden Center",
    "group": "YOUNG PEOPLE'S DIVERSITY",
    "floor": "",
    "postcode": 10013,
    "wheelChair": false,
    "zone": 1,
    "location": "283 W BROADWAY New York NY ",
    "lat": "40.7208",
    "lng": "-74.0049"
  },
  {
    "name": "Hazelden Center",
    "group": "YOUNG PEOPLE'S STEP",
    "floor": "",
    "postcode": 10013,
    "wheelChair": true,
    "zone": 1,
    "location": "283 W BROADWAY New York NY ",
    "lat": "40.7208",
    "lng": "-74.0049"
  },
  {
    "name": "Hazelden Center",
    "group": "YOUTH ENJOYING SOBRIETY",
    "floor": "",
    "postcode": 10013,
    "wheelChair": true,
    "zone": 1,
    "location": "283 W BROADWAY New York NY ",
    "lat": "40.7208",
    "lng": "-74.0049"
  },
  {
    "name": "University Settlement",
    "group": "A.A. ON THE BOWERY",
    "floor": "Downstairs",
    "postcode": 10002,
    "wheelChair": true,
    "zone": 2,
    "location": "273 BOWERY New York NY ",
    "lat": "40.7236818990557",
    "lng": "-73.9924846000013"
  },
  {
    "name": "Manhattan Seventh-Day Adventist Church",
    "group": "AFTER FIVE",
    "floor": "",
    "postcode": 10014,
    "wheelChair": false,
    "zone": 2,
    "location": "232 W 11TH ST New York NY ",
    "lat": "40.7362371953365",
    "lng": "-74.0025217528845"
  },
  {
    "name": "Hazelden Center",
    "group": "AFTERNOON DELIGHT",
    "floor": "",
    "postcode": 10013,
    "wheelChair": true,
    "zone": 2,
    "location": "283 W BROADWAY New York NY ",
    "lat": "40.7208247814361",
    "lng": "-74.0048537254953"
  },
  {
    "name": "Seventh Day Adventist Church",
    "group": "ARTISTS IN RECOVERY",
    "floor": "",
    "postcode": 10014,
    "wheelChair": false,
    "zone": 2,
    "location": "232 W 11TH ST New York NY ",
    "lat": "40.7362371953365",
    "lng": "-74.0025217528845"
  },
  {
    "name": "",
    "group": "BAGELS AND BIG BOOK",
    "floor": "2nd Floor",
    "postcode": 10014,
    "wheelChair": false,
    "zone": 2,
    "location": "220 W HOUSTON ST New York NY ",
    "lat": "40.7286467882859",
    "lng": "-74.0045885668674"
  },
  {
    "name": "Golden Bridge Yoga Center",
    "group": "CENTER MEETING",
    "floor": "3rd Floor",
    "postcode": 10013,
    "wheelChair": false,
    "zone": 2,
    "location": "253 CENTER ST New York NY ",
    "lat": "40.7206",
    "lng": "-73.998"
  },
  {
    "name": "University Settlement (The Chinatown YMCA)",
    "group": "EAST VILLAGE SOBER AGNOSTICS",
    "floor": "",
    "postcode": 10002,
    "wheelChair": true,
    "zone": 2,
    "location": "273 BOWERY New York NY ",
    "lat": "40.7235",
    "lng": "-73.9922"
  },
  {
    "name": "St. Luke's Episcopal School",
    "group": "GREENWICH VILLAGE",
    "floor": "Basement",
    "postcode": 10014,
    "wheelChair": false,
    "zone": 2,
    "location": "487 HUDSON ST New York NY ",
    "lat": "40.7326",
    "lng": "-74.0067"
  },
  {
    "name": "St. Augustine's Church",
    "group": "GRUPO CENTRAL",
    "floor": "Basement",
    "postcode": 10002,
    "wheelChair": true,
    "zone": 2,
    "location": "292 HENRY ST New York NY ",
    "lat": "40.7137225661799",
    "lng": "-73.9830344520293"
  },
  {
    "name": "Manhattan Church of The Seventh-day Adventist",
    "group": "HAPPY, JOYOUS AND FREE",
    "floor": "",
    "postcode": 10014,
    "wheelChair": true,
    "zone": 2,
    "location": "232 W 11TH ST New York NY ",
    "lat": "40.7362371953365",
    "lng": "-74.0025217528845"
  },
  {
    "name": "",
    "group": "MIDNITE",
    "floor": "2nd Floor",
    "postcode": 10014,
    "wheelChair": false,
    "zone": 2,
    "location": "220 W HOUSTON ST New York NY ",
    "lat": "40.7286467882859",
    "lng": "-74.0045885668674"
  },
  {
    "name": "Church of Saint Theresa Rectory",
    "group": "LOWER EAST SIDE",
    "floor": "1st Floor",
    "postcode": 10002,
    "wheelChair": false,
    "zone": 2,
    "location": "141 HENRY ST New York NY ",
    "lat": "40.6964",
    "lng": "-73.9934"
  },
  {
    "name": "St. John's Lutheran Church",
    "group": "NEW GROUP",
    "floor": "Left of Church)",
    "postcode": 10014,
    "wheelChair": false,
    "zone": 2,
    "location": "83 CHRISTOPHER ST New York NY ",
    "lat": "40.7336",
    "lng": "-74.0037"
  },
  {
    "name": "",
    "group": "PERRY STREET WORKSHOP",
    "floor": "Ground Floor",
    "postcode": 10014,
    "wheelChair": false,
    "zone": 2,
    "location": "50 PERRY ST New York NY ",
    "lat": "40.7355",
    "lng": "-74.0032"
  },
  {
    "name": "Seventh Day Adventist Church",
    "group": "PRIMETIME NYC",
    "floor": "",
    "postcode": 10014,
    "wheelChair": false,
    "zone": 2,
    "location": "232 W 11TH ST New York NY ",
    "lat": "40.7362371953365",
    "lng": "-74.0025217528845"
  },
  {
    "name": "St. John's Episcopal Church",
    "group": "RED DOOR",
    "floor": "1st floor event room.",
    "postcode": 10014,
    "wheelChair": false,
    "zone": 2,
    "location": "224 WAVERLY PL New York NY ",
    "lat": "40.7360739124495",
    "lng": "-74.0019465995063"
  },
  {
    "name": "St. Anthony's of Padua",
    "group": "ROOM FOR IMPROVEMENT",
    "floor": "",
    "postcode": 10012,
    "wheelChair": false,
    "zone": 2,
    "location": "154 SULLIVAN ST New York NY ",
    "lat": "40.6793331473202",
    "lng": "-74.0142665264419"
  },
  {
    "name": "Chinatown YMCA",
    "group": "ROOM FOR IMPROVEMENT",
    "floor": "",
    "postcode": 10012,
    "wheelChair": true,
    "zone": 2,
    "location": "273 BOWERY ST New York NY ",
    "lat": "40.7236818990557",
    "lng": "-73.9924846000013"
  },
  {
    "name": "St. Joseph's Church",
    "group": "SHERIDAN SQUARE FOLLIES",
    "floor": "Basement",
    "postcode": 10014,
    "wheelChair": true,
    "zone": 2,
    "location": "371 6TH AVE New York NY ",
    "lat": "40.7325778975834",
    "lng": "-74.0004316773161"
  },
  {
    "name": "St. Anthony of Padua Church",
    "group": "SOHO",
    "floor": "Basement",
    "postcode": 10012,
    "wheelChair": false,
    "zone": 2,
    "location": "155 SULLIVAN ST New York NY ",
    "lat": "40.6793",
    "lng": "-74.0145"
  },
  {
    "name": "The Bronfman Cernter @ NYU",
    "group": "SPIRITUAL WORKSHOP",
    "floor": "",
    "postcode": 10003,
    "wheelChair": false,
    "zone": 2,
    "location": "7 E 10TH STRERT New York NY ",
    "lat": "40.7333014567065",
    "lng": "-73.9949355719509"
  },
  {
    "name": "Seventh Adventist Church",
    "group": "T&A-TOGETHERNESS & ACTION",
    "floor": "Basement",
    "postcode": null,
    "wheelChair": false,
    "zone": 2,
    "location": "232 W 11TH ST New York NY ",
    "lat": "40.7362371953365",
    "lng": "-74.0025217528845"
  },
  {
    "name": "St. John's Lutheran Church",
    "group": "TEN PLUS",
    "floor": "",
    "postcode": 10014,
    "wheelChair": false,
    "zone": 2,
    "location": "81 CHRISTOPHER ST New York NY ",
    "lat": "40.6367336526525",
    "lng": "-74.1643758607423"
  },
  {
    "name": "University Settlement (The Chinatown YMCA)",
    "group": "THE CAPTAIN'S TABLE",
    "floor": "Downstairs",
    "postcode": 10002,
    "wheelChair": true,
    "zone": 2,
    "location": "273 BOWERY New York NY ",
    "lat": "40.7236818990557",
    "lng": "-73.9924846000013"
  },
  {
    "name": "Manhattan Seventh-Day Adventist Church",
    "group": "TOGETHER WE CAN",
    "floor": "",
    "postcode": 10014,
    "wheelChair": false,
    "zone": 2,
    "location": "232 W 11TH ST New York NY ",
    "lat": "40.7362371953365",
    "lng": "-74.0025217528845"
  },
  {
    "name": "Manhattan Church of The Seventh-day Adventist",
    "group": "WEDNESDAY FOCUS",
    "floor": "",
    "postcode": 10014,
    "wheelChair": true,
    "zone": 2,
    "location": "232 W 11TH ST New York NY ",
    "lat": "40.7362371953365",
    "lng": "-74.0025217528845"
  },
  {
    "name": "St. John's Lutheran Church",
    "group": "WEST VILLAGE WOMEN",
    "floor": "Basement",
    "postcode": 10014,
    "wheelChair": true,
    "zone": 2,
    "location": "83 CHRISTOPHER ST New York NY ",
    "lat": "40.7335784357573",
    "lng": "-74.0037470106206"
  },
  {
    "name": "",
    "group": "WOMEN INTO ACTION",
    "floor": "2nd Floor",
    "postcode": 10014,
    "wheelChair": false,
    "zone": 2,
    "location": "220 W HOUSTON ST New York NY ",
    "lat": "40.7286467882859",
    "lng": "-74.0045885668674"
  },
  {
    "name": "University Settlement @ Houston Street Center",
    "group": "WOMEN TOGETHER",
    "floor": "Classroom Floor",
    "postcode": 10002,
    "wheelChair": true,
    "zone": 2,
    "location": "273 BOWERY New York NY ",
    "lat": "40.7236818990557",
    "lng": "-73.9924846000013"
  },
  {
    "name": "N.Y.U Bronfman Center",
    "group": "12 CONCEPTS WORKSHOP",
    "floor": "2nd Floor",
    "postcode": 10003,
    "wheelChair": false,
    "zone": 3,
    "location": "7 E 10TH ST New York NY ",
    "lat": "40.6483895400048",
    "lng": "-73.9705803172279"
  },
  {
    "name": "Gustavus Adolphus Church",
    "group": "22 BELOW",
    "floor": "Basement",
    "postcode": 10010,
    "wheelChair": false,
    "zone": 3,
    "location": "155 E 22ND ST New York NY ",
    "lat": "40.6456241405083",
    "lng": "-73.9566432425704"
  },
  {
    "name": "Three Jewels Community Center",
    "group": "AA AT THE THREE JEWELS",
    "floor": "3rd Floor",
    "postcode": 10003,
    "wheelChair": false,
    "zone": 3,
    "location": "61 FOURTH AVE New York NY ",
    "lat": "40.7309933179645",
    "lng": "-73.9903457868189"
  },
  {
    "name": "Lesbian, Gay, Bi-Sexual & Transgender Community Center",
    "group": "AGNOSTICS AT NOON",
    "floor": "3rd Floor",
    "postcode": 10011,
    "wheelChair": false,
    "zone": 3,
    "location": "208 W 13TH ST New York NY ",
    "lat": "40.7381015874774",
    "lng": "-74.0009719369804"
  },
  {
    "name": "Seafarers & Intl House",
    "group": "ALIVE AGAIN",
    "floor": "2nd Floor Conference Room",
    "postcode": 10003,
    "wheelChair": true,
    "zone": 3,
    "location": "123 E 15TH ST New York NY ",
    "lat": "40.6470987877411",
    "lng": "-73.9654484272783"
  },
  {
    "name": "Calvary Church Parish House",
    "group": "AT BILL'S PLACE",
    "floor": "",
    "postcode": 10010,
    "wheelChair": false,
    "zone": 3,
    "location": "61 GRAMERCY PARK N New York NY ",
    "lat": "40.7387",
    "lng": "-73.9866"
  },
  {
    "name": "Gustavus Adolphus Lutheran Church",
    "group": "ATLANTIC BY THE BOOK",
    "floor": "Ground Floor",
    "postcode": 10010,
    "wheelChair": true,
    "zone": 3,
    "location": "155 E 22ND ST New York NY ",
    "lat": "40.7385487033475",
    "lng": "-73.9843107652274"
  },
  {
    "name": "Mabel Bacon High School of the Future",
    "group": "ATLANTIC DOWNTOWN",
    "floor": "2nd Floor Auditorium",
    "postcode": 10010,
    "wheelChair": true,
    "zone": 3,
    "location": "127 E 22ND ST New York NY ",
    "lat": "40.7389817654159",
    "lng": "-73.985336401427"
  },
  {
    "name": "Trinity Lower East Side Lutheran Parish",
    "group": "AVENUE B CLEAN AND DRY",
    "floor": "",
    "postcode": 10009,
    "wheelChair": true,
    "zone": 3,
    "location": "602 E 9TH ST New York NY ",
    "lat": "40.7256865491758",
    "lng": "-73.9791544569912"
  },
  {
    "name": "McBurney YMCA",
    "group": "BIG BOOK MAGIC",
    "floor": "Kuttner Room",
    "postcode": 10011,
    "wheelChair": true,
    "zone": 3,
    "location": "125 W 14TH ST New York NY ",
    "lat": "40.737690789482",
    "lng": "-73.997394196627"
  },
  {
    "name": "St. Peters Episcopal Church- Rectory",
    "group": "CHELSEA MORNINGS",
    "floor": "",
    "postcode": 10011,
    "wheelChair": false,
    "zone": 3,
    "location": "346 W 20TH ST New York NY ",
    "lat": "40.7440018974012",
    "lng": "-74.0014509597722"
  },
  {
    "name": "McBurney YMCA",
    "group": "CHELSEA NOONERS",
    "floor": "Ground Floor",
    "postcode": 10011,
    "wheelChair": true,
    "zone": 3,
    "location": "125 W 14TH ST New York NY ",
    "lat": "40.737690789482",
    "lng": "-73.997394196627"
  },
  {
    "name": "Our Lady of Immaculate Conception",
    "group": "COMPLETE ABANDON",
    "floor": "Auditorium",
    "postcode": 10009,
    "wheelChair": true,
    "zone": 3,
    "location": "414 E 14TH ST New York NY ",
    "lat": "40.6395417336981",
    "lng": "-73.9651483760178"
  },
  {
    "name": "Fulton Senior Center",
    "group": "COMPLETELY SOBER",
    "floor": "",
    "postcode": 10011,
    "wheelChair": true,
    "zone": 3,
    "location": "119 NINTH AVE New York NY ",
    "lat": "40.8236360777407",
    "lng": "-73.809197225071"
  },
  {
    "name": "Christopher House",
    "group": "CROSSROADS",
    "floor": "Mezzanine",
    "postcode": 10011,
    "wheelChair": true,
    "zone": 3,
    "location": "202 W 24 ST New York NY ",
    "lat": "40.7447064928879",
    "lng": "-73.9952593824343"
  },
  {
    "name": "Brotherhood Synagogue",
    "group": "EAST MEETS WEST IN SOBRIETY",
    "floor": "1st Floor",
    "postcode": 10003,
    "wheelChair": true,
    "zone": 3,
    "location": "28 GRAMERCY PARK S New York NY ",
    "lat": "40.7371581633267",
    "lng": "-73.9853137813165"
  },
  {
    "name": "Middle Collegiate Church",
    "group": "EAST VILLAGE GROUP",
    "floor": "3rd and 4th floors",
    "postcode": 10003,
    "wheelChair": false,
    "zone": 3,
    "location": "50 E 7TH ST New York NY ",
    "lat": "40.727842175225",
    "lng": "-73.9880097296677"
  },
  {
    "name": "University Settlement House",
    "group": "EXPERIENCE STRENGTH AND HOPE",
    "floor": "2nd Floor Classroom",
    "postcode": 10003,
    "wheelChair": true,
    "zone": 3,
    "location": "273 BOWERY New York NY ",
    "lat": "40.7236818990557",
    "lng": "-73.9924846000013"
  },
  {
    "name": "Grace Church Office Building",
    "group": "GRACE ON BROADWAY",
    "floor": "3rd Floor Conference Room",
    "postcode": 10003,
    "wheelChair": true,
    "zone": 3,
    "location": "802 BROADWAY New York NY ",
    "lat": "40.7320478046546",
    "lng": "-73.9911904036263"
  },
  {
    "name": "Brothhood Synagogue",
    "group": "GRAMERCY",
    "floor": "2nd floor",
    "postcode": 10010,
    "wheelChair": true,
    "zone": 3,
    "location": "28 GRAMMERCY PARK S New York NY ",
    "lat": "40.7371581633267",
    "lng": "-73.9853137813165"
  },
  {
    "name": "Saint George Episcopal Church",
    "group": "GRATEFUL GROUP OF A.A.",
    "floor": "Basement",
    "postcode": 10003,
    "wheelChair": false,
    "zone": 3,
    "location": "209 E 16TH ST New York NY ",
    "lat": "40.7346489697825",
    "lng": "-73.9860544344337"
  },
  {
    "name": "Church of the Nativity",
    "group": "GRUPO EL MILAGRO",
    "floor": "Main Floor",
    "postcode": 10003,
    "wheelChair": false,
    "zone": 3,
    "location": "44 2ND AVE New York NY ",
    "lat": "40.5913360380677",
    "lng": "-73.9818486824745"
  },
  {
    "name": "Our Lady of Guadalupe Church",
    "group": "GRUPO GRATITUD",
    "floor": "",
    "postcode": 10011,
    "wheelChair": false,
    "zone": 3,
    "location": "229 W 14TH ST New York NY ",
    "lat": "40.7389806770461",
    "lng": "-74.0004662035248"
  },
  {
    "name": "Our Lady of Guadalupe Church",
    "group": "GRUPO SOBRIEDAD",
    "floor": "",
    "postcode": 10011,
    "wheelChair": false,
    "zone": 3,
    "location": "229 W 14TH ST New York NY ",
    "lat": "40.7389806770461",
    "lng": "-74.0004662035248"
  },
  {
    "name": "Lesbian, Gay, Bi-Sexual & Transgender Community Center",
    "group": "HIGH NOON",
    "floor": "",
    "postcode": 10011,
    "wheelChair": true,
    "zone": 3,
    "location": "208 W 13TH ST New York NY ",
    "lat": "40.7381015874774",
    "lng": "-74.0009719369804"
  },
  {
    "name": "Brotherhood Synagogue",
    "group": "JUST FOR TODAY",
    "floor": "",
    "postcode": 10003,
    "wheelChair": true,
    "zone": 3,
    "location": "28 GRAMERCY PARK S New York NY ",
    "lat": "40.7371581633267",
    "lng": "-73.9853137813165"
  },
  {
    "name": "Lesbian, Gay, Bisexual, & Transgender Community Center",
    "group": "LAeX",
    "floor": "Room 212",
    "postcode": 10001,
    "wheelChair": true,
    "zone": 3,
    "location": "208 W 13TH ST New York NY ",
    "lat": "40.7381015874774",
    "lng": "-74.0009719369804"
  },
  {
    "name": "The Upright Citizens Brigade Theatre",
    "group": "LEARNING TO LIVE",
    "floor": "",
    "postcode": 10011,
    "wheelChair": true,
    "zone": 3,
    "location": "307 W 26TH ST New York NY ",
    "lat": "40.7473708388913",
    "lng": "-73.9972612945271"
  },
  {
    "name": "St. Columba Church",
    "group": "LEARNING TO LIVE",
    "floor": "",
    "postcode": 10001,
    "wheelChair": false,
    "zone": 3,
    "location": "343 W 25TH ST New York NY ",
    "lat": "40.7471694175559",
    "lng": "-73.9987316903289"
  },
  {
    "name": "Theatre 80",
    "group": "LIVING NOW",
    "floor": "2nd Floor",
    "postcode": 10003,
    "wheelChair": false,
    "zone": 3,
    "location": "80 SAINT MARKS PL New York NY ",
    "lat": "40.6816885738014",
    "lng": "-73.9798566651115"
  },
  {
    "name": "Lesbian, Gay, Bi-Sexual & Transgender Community Center",
    "group": "LIVING TODAY",
    "floor": "",
    "postcode": 10011,
    "wheelChair": true,
    "zone": 3,
    "location": "208 W 13TH ST New York NY ",
    "lat": "40.7381015874774",
    "lng": "-74.0009719369804"
  },
  {
    "name": "Intercare",
    "group": "MADISON PARK BEGINNERS",
    "floor": "Lower Level",
    "postcode": 10010,
    "wheelChair": true,
    "zone": 3,
    "location": "51 E 25TH ST New York NY ",
    "lat": "40.7408088821358",
    "lng": "-73.9836251390165"
  },
  {
    "name": "Gustavus Adolphus Church",
    "group": "MANHATTAN",
    "floor": "Basement",
    "postcode": 10010,
    "wheelChair": false,
    "zone": 3,
    "location": "155 E 22ND ST New York NY ",
    "lat": "40.6456241405083",
    "lng": "-73.9566432425704"
  },
  {
    "name": "Bronfman Center",
    "group": "N.Y.U.",
    "floor": "2nd Floor",
    "postcode": 10003,
    "wheelChair": false,
    "zone": 3,
    "location": "7 E 10TH ST New York NY ",
    "lat": "40.7332540959031",
    "lng": "-73.9948230189705"
  },
  {
    "name": "German Evangelist Lutheran Church of St. Paul",
    "group": "NEVER HAD A LEGAL DRINK",
    "floor": "1st Floor",
    "postcode": 10011,
    "wheelChair": false,
    "zone": 3,
    "location": "315 W 22ND ST New York NY ",
    "lat": "40.7448881630939",
    "lng": "-73.9993530097064"
  },
  {
    "name": "Friends Meeting House",
    "group": "NEW LIFE IN SOBRIETY",
    "floor": "Basement",
    "postcode": 10003,
    "wheelChair": false,
    "zone": 3,
    "location": "15 RUTHERFORD PL New York NY ",
    "lat": "40.7338",
    "lng": "-73.9851"
  },
  {
    "name": "The Realization Center",
    "group": "NINJAS IN RECOVERY",
    "floor": "",
    "postcode": 10003,
    "wheelChair": false,
    "zone": 3,
    "location": "25 E 15TH New York NY ",
    "lat": "40.7365752836269",
    "lng": "-73.9926126552032"
  },
  {
    "name": "General Theological Seminary",
    "group": "NINTH AVENUE",
    "floor": "1st and 2nd Floor",
    "postcode": 10011,
    "wheelChair": false,
    "zone": 3,
    "location": "175 9TH AVE New York NY ",
    "lat": "40.7449675094436",
    "lng": "-74.0025507946584"
  },
  {
    "name": "The Realization Center",
    "group": "OADW",
    "floor": "7th Floor",
    "postcode": 10003,
    "wheelChair": true,
    "zone": 3,
    "location": "19 UNION SQ W New York NY ",
    "lat": "40.7360946967377",
    "lng": "-73.9912290994142"
  },
  {
    "name": "Gustavus Adolphus Church",
    "group": "P.A.X",
    "floor": "1st Floor",
    "postcode": 10010,
    "wheelChair": false,
    "zone": 3,
    "location": "155 E 22ND ST New York NY ",
    "lat": "40.6456241405083",
    "lng": "-73.9566432425704"
  },
  {
    "name": "Veterans Administration Hospital",
    "group": "POT LUCK",
    "floor": "3rd fl",
    "postcode": 10010,
    "wheelChair": true,
    "zone": 3,
    "location": "423 E 23RD ST New York NY ",
    "lat": "40.6395707540715",
    "lng": "-73.9559739219442"
  },
  {
    "name": "St. George's Church",
    "group": "POTPOURRI",
    "floor": "Olmstead Hall",
    "postcode": 10003,
    "wheelChair": false,
    "zone": 3,
    "location": "209 E 16TH ST New York NY ",
    "lat": "40.7346489697825",
    "lng": "-73.9860544344337"
  },
  {
    "name": "",
    "group": "PRIMETIME NYC",
    "floor": "",
    "postcode": 10009,
    "wheelChair": false,
    "zone": 3,
    "location": "411 E 12TH ST New York NY ",
    "lat": "40.7300048121145",
    "lng": "-73.983272777792"
  },
  {
    "name": "St. George's Church",
    "group": "SATURDAY BEGINNERS",
    "floor": "",
    "postcode": 10003,
    "wheelChair": false,
    "zone": 3,
    "location": "209 E 16TH ST New York NY ",
    "lat": "40.7346489697825",
    "lng": "-73.9860544344337"
  },
  {
    "name": "Epiphany Roman Catholic Church",
    "group": "SATURDAY WEEKENDERS",
    "floor": "Church Rectory",
    "postcode": 10009,
    "wheelChair": false,
    "zone": 3,
    "location": "239 E 21ST ST New York NY ",
    "lat": "40.6485917411313",
    "lng": "-73.9595762284765"
  },
  {
    "name": "First Presbyterian Church",
    "group": "SAVE HER A SEAT",
    "floor": "6th Floor-Roof Level",
    "postcode": 10011,
    "wheelChair": true,
    "zone": 3,
    "location": "12 W 12TH ST New York NY ",
    "lat": "40.7347362617638",
    "lng": "-73.9949685934818"
  },
  {
    "name": "Church of the Nativity",
    "group": "SECOND AVENUE CLEAN AND DRY",
    "floor": "",
    "postcode": 10003,
    "wheelChair": false,
    "zone": 3,
    "location": "44 2ND AVE New York NY ",
    "lat": "40.5913360380677",
    "lng": "-73.9818486824745"
  },
  {
    "name": "Lesbian, Gay, Bi-Sexual & Transgender Community Center",
    "group": "SOBER MIRACLES",
    "floor": "",
    "postcode": 10011,
    "wheelChair": false,
    "zone": 3,
    "location": "208 W 13TH ST New York NY ",
    "lat": "40.7381015874774",
    "lng": "-74.0009719369804"
  },
  {
    "name": "Church of the Ascension Parish House",
    "group": "SOBRIETY ON THE SQUARE",
    "floor": "Ground Floor",
    "postcode": 10011,
    "wheelChair": false,
    "zone": 3,
    "location": "12 W 11TH ST New York NY ",
    "lat": "40.7340978938148",
    "lng": "-73.9954339239964"
  },
  {
    "name": "PS 41 Elementary School",
    "group": "SPEAKER MAGIC",
    "floor": "",
    "postcode": 10011,
    "wheelChair": false,
    "zone": 3,
    "location": "116 W 11TH ST New York NY ",
    "lat": "40.7355527136856",
    "lng": "-73.9988979600227"
  },
  {
    "name": "",
    "group": "STRAIGHT 12",
    "floor": "14th Floor",
    "postcode": 10011,
    "wheelChair": true,
    "zone": 3,
    "location": "80 5TH AVE New York NY ",
    "lat": "40.736026353707",
    "lng": "-73.9937127134694"
  },
  {
    "name": "P.S. 41 (see footnote re: temp location)",
    "group": "SUNDAY AT SIX",
    "floor": "Cafeteria",
    "postcode": 10011,
    "wheelChair": true,
    "zone": 3,
    "location": "116 W 11TH ST New York NY ",
    "lat": "40.7355527136856",
    "lng": "-73.9988979600227"
  },
  {
    "name": "Gustavus Adolphus Church",
    "group": "SUNDAY MORNING MEDITATION",
    "floor": "",
    "postcode": 10010,
    "wheelChair": false,
    "zone": 3,
    "location": "155 E 22ND ST New York NY ",
    "lat": "40.6456241405083",
    "lng": "-73.9566432425704"
  },
  {
    "name": "East Midtown Plaza (Community Room H)",
    "group": "SUNDAY NOONERS",
    "floor": "",
    "postcode": 10010,
    "wheelChair": true,
    "zone": 3,
    "location": "319 EASTR 24TH ST New York NY ",
    "lat": "40.6639307188879",
    "lng": "-73.9382749875207"
  },
  {
    "name": "Beth Israel Hospital @ Karpas Cancer Center Library",
    "group": "SURVIVORS IN SOBRIETY",
    "floor": "4th Floor",
    "postcode": 10003,
    "wheelChair": true,
    "zone": 3,
    "location": "10 E UNION SQ New York NY ",
    "lat": "40.7348",
    "lng": "-73.9898"
  },
  {
    "name": "All Saints Ukrainian Orthodox Church",
    "group": "SVOBODA",
    "floor": "",
    "postcode": 10003,
    "wheelChair": false,
    "zone": 3,
    "location": "206208 E 11TH ST New York NY ",
    "lat": "40.6639307188879",
    "lng": "-73.9382749875207"
  },
  {
    "name": "Seafarers & International House",
    "group": "T.G.I.F. & S.",
    "floor": "2nd Floor",
    "postcode": 10003,
    "wheelChair": true,
    "zone": 3,
    "location": "123 E 15TH ST New York NY ",
    "lat": "40.7347374906693",
    "lng": "-73.9882404289172"
  },
  {
    "name": "",
    "group": "THE 12th STREET WORKSHOP",
    "floor": "Basement",
    "postcode": 10009,
    "wheelChair": false,
    "zone": 3,
    "location": "411 E 12TH ST New York NY ",
    "lat": "40.6395158943622",
    "lng": "-73.9668529481007"
  },
  {
    "name": "McBurney YMCA",
    "group": "THE FELLOWSHIP CLUB",
    "floor": "1st Floor Meeting Room",
    "postcode": 10011,
    "wheelChair": true,
    "zone": 3,
    "location": "125 W 14TH ST New York NY ",
    "lat": "40.737690789482",
    "lng": "-73.997394196627"
  },
  {
    "name": "LGBT Community Center",
    "group": "TRANSGENDER FOCUS",
    "floor": "",
    "postcode": 10011,
    "wheelChair": true,
    "zone": 3,
    "location": "208 W 13TH ST New York NY ",
    "lat": "40.7381015874774",
    "lng": "-74.0009719369804"
  },
  {
    "name": "Beth Israel Phillips Ambulatory Center",
    "group": "TWELVE AT SIX",
    "floor": "2nd Floor",
    "postcode": 10003,
    "wheelChair": true,
    "zone": 3,
    "location": "10 UNION SQ E New York NY ",
    "lat": "40.7348",
    "lng": "-73.9898"
  },
  {
    "name": "St. Francis Residence",
    "group": "UPON AWAKENING",
    "floor": "1st Floor",
    "postcode": 10011,
    "wheelChair": true,
    "zone": 3,
    "location": "155 W 22ND ST New York NY ",
    "lat": "40.742975462255",
    "lng": "-73.9948187519044"
  },
  {
    "name": "Lesbian, Gay, Bi-Sexual & Transgender Community Center",
    "group": "VILLAGE AGNOSTICS",
    "floor": "",
    "postcode": 10011,
    "wheelChair": false,
    "zone": 3,
    "location": "208 W 13TH ST New York NY ",
    "lat": "40.7381015874774",
    "lng": "-74.0009719369804"
  },
  {
    "name": "First Presbyterian Church",
    "group": "VILLAGE OPEN DISCUSSION",
    "floor": "Third Floor",
    "postcode": 10011,
    "wheelChair": true,
    "zone": 3,
    "location": "12 W 12TH ST New York NY ",
    "lat": "40.7347362617638",
    "lng": "-73.9949685934818"
  },
  {
    "name": "The Caring Community",
    "group": "VILLAGE SOBER",
    "floor": "2nd Floor",
    "postcode": 10011,
    "wheelChair": true,
    "zone": 3,
    "location": "20 WASHINGTON SQ N New York NY ",
    "lat": "40.7319",
    "lng": "-73.9978"
  },
  {
    "name": "14th Street Y",
    "group": "WEEKENDERS",
    "floor": "",
    "postcode": 10003,
    "wheelChair": true,
    "zone": 3,
    "location": "344 E 14TH ST New York NY ",
    "lat": "40.7318206198245",
    "lng": "-73.9839070535178"
  },
  {
    "name": "St. Francis Residence",
    "group": "WEST 22nd STREET SOBRIETY",
    "floor": "1st Floor",
    "postcode": 10011,
    "wheelChair": false,
    "zone": 3,
    "location": "155 W 22ND ST New York NY ",
    "lat": "40.742975462255",
    "lng": "-73.9948187519044"
  },
  {
    "name": "Lesbian, Gay, Bi-Sexual & Transgender Community Center",
    "group": "WESTWINGERS",
    "floor": "",
    "postcode": 10011,
    "wheelChair": true,
    "zone": 3,
    "location": "208 W 13TH ST New York NY ",
    "lat": "40.7381015874774",
    "lng": "-74.0009719369804"
  },
  {
    "name": "Trinity Lutheran Church",
    "group": "WHOLESALE MIRACLES",
    "floor": "Ground Floor",
    "postcode": 10009,
    "wheelChair": true,
    "zone": 3,
    "location": "602 E 9TH ST New York NY ",
    "lat": "40.7256865491758",
    "lng": "-73.9791544569912"
  },
  {
    "name": "Gay, Lesbian, Bi-Sexual & Transgender Community Center",
    "group": "WOMEN NOW",
    "floor": "",
    "postcode": 10011,
    "wheelChair": false,
    "zone": 3,
    "location": "208 W 13TH ST New York NY ",
    "lat": "40.7381015874774",
    "lng": "-74.0009719369804"
  },
  {
    "name": "Lesbian, Gay, Bi-Sexual & Transgender Community Center",
    "group": "WOMEN TOGETHER",
    "floor": "",
    "postcode": 10011,
    "wheelChair": true,
    "zone": 3,
    "location": "208 W 13TH ST New York NY ",
    "lat": "40.7381015874774",
    "lng": "-74.0009719369804"
  },
  {
    "name": "Realization Center",
    "group": "WOMEN'S SATURDAY ELEVENTH STEP MEDITATION",
    "floor": "7th Floor",
    "postcode": 10003,
    "wheelChair": true,
    "zone": 3,
    "location": "19 UNION SQ W New York NY ",
    "lat": "40.7361",
    "lng": "-73.9912"
  },
  {
    "name": "Most Holy Redeemer Church",
    "group": "WORKS IN PROGRESS",
    "floor": "",
    "postcode": 10009,
    "wheelChair": false,
    "zone": 3,
    "location": "173 E 3RD ST New York NY ",
    "lat": "40.6478013436514",
    "lng": "-73.9781507315578"
  },
  {
    "name": "Middle Collegiate Church",
    "group": "YOUNG AND WISE",
    "floor": "",
    "postcode": 10003,
    "wheelChair": false,
    "zone": 3,
    "location": "50 E 7TH ST New York NY ",
    "lat": "40.6514010527302",
    "lng": "-73.9749022931986"
  },
  {
    "name": "46th Street Club House",
    "group": "4 THE GRACE",
    "floor": "3rd Floor",
    "postcode": 10036,
    "wheelChair": false,
    "zone": 4,
    "location": "252 W 46TH ST New York NY ",
    "lat": "40.7591895426735",
    "lng": "-73.9867385774772"
  },
  {
    "name": "",
    "group": "42nd AT 9:00pm",
    "floor": "Room #404",
    "postcode": 10036,
    "wheelChair": false,
    "zone": 4,
    "location": "303 W 42ND ST New York NY ",
    "lat": "40.7573472021927",
    "lng": "-73.9898278386809"
  },
  {
    "name": "",
    "group": "A NEW FREEDOM",
    "floor": "3rd Floor",
    "postcode": 10036,
    "wheelChair": false,
    "zone": 4,
    "location": "303 W 42ND ST New York NY ",
    "lat": "40.7573472021927",
    "lng": "-73.9898278386809"
  },
  {
    "name": "S.A.G.E.",
    "group": "ABINGDON SQUARE IN CHELSEA",
    "floor": "6th Floor",
    "postcode": 10001,
    "wheelChair": true,
    "zone": 4,
    "location": "305 7TH AVE New York NY ",
    "lat": "40.7490752995785",
    "lng": "-73.9919132084332"
  },
  {
    "name": "Saint Thomas Church",
    "group": "ADVENTURES IN SOBRIETY",
    "floor": "3rd Floor",
    "postcode": 10019,
    "wheelChair": true,
    "zone": 4,
    "location": "1 W 53RD ST New York NY ",
    "lat": "40.7605078757684",
    "lng": "-73.9758124645304"
  },
  {
    "name": "",
    "group": "ALANON HOUSE",
    "floor": "3rd Floor",
    "postcode": 10036,
    "wheelChair": false,
    "zone": 4,
    "location": "303 W 42ND ST New York NY ",
    "lat": "40.7573472021927",
    "lng": "-73.9898278386809"
  },
  {
    "name": "St. Mary the Virgin Church",
    "group": "AMAZING GRACE",
    "floor": "3rd Floor",
    "postcode": 10036,
    "wheelChair": false,
    "zone": 4,
    "location": "133 W 46TH ST New York NY ",
    "lat": "40.7578644754971",
    "lng": "-73.9831494978391"
  },
  {
    "name": "Hudson Guild",
    "group": "ANNEX",
    "floor": "2nd Fl.",
    "postcode": 10001,
    "wheelChair": true,
    "zone": 4,
    "location": "441 W 26TH ST New York NY ",
    "lat": "40.7491018941578",
    "lng": "-74.001388696334"
  },
  {
    "name": "GMHC",
    "group": "ANNEX",
    "floor": "6th Floor",
    "postcode": 10001,
    "wheelChair": true,
    "zone": 4,
    "location": "446 W 33RD ST New York NY ",
    "lat": "40.7534748563734",
    "lng": "-73.9988113218168"
  },
  {
    "name": "46th Street Clubhouse",
    "group": "ARTISTS IN RECOVERY",
    "floor": "3rd Floor",
    "postcode": 10036,
    "wheelChair": false,
    "zone": 4,
    "location": "252 W 46TH ST New York NY ",
    "lat": "40.7591895426735",
    "lng": "-73.9867385774772"
  },
  {
    "name": "46th Street Club House",
    "group": "BEGINNERS",
    "floor": "3rd Floor",
    "postcode": 10036,
    "wheelChair": false,
    "zone": 4,
    "location": "252 W 46TH ST New York NY ",
    "lat": "40.7591895426735",
    "lng": "-73.9867385774772"
  },
  {
    "name": "46th Street Club House",
    "group": "BEGINNERS",
    "floor": "3rd Floor",
    "postcode": 10036,
    "wheelChair": false,
    "zone": 4,
    "location": "252 W 46TH ST New York NY ",
    "lat": "40.7591895426735",
    "lng": "-73.9867385774772"
  },
  {
    "name": "",
    "group": "BLUEPRINT FOR LIVING",
    "floor": "",
    "postcode": 10036,
    "wheelChair": false,
    "zone": 4,
    "location": "303 W 42ND ST New York NY ",
    "lat": "40.7573472021927",
    "lng": "-73.9898278386809"
  },
  {
    "name": "St. Francis of Assisi Education Center",
    "group": "BOOKSHOP AT NOON",
    "floor": "3rd Floor",
    "postcode": 10001,
    "wheelChair": false,
    "zone": 4,
    "location": "139 W 31ST ST New York NY ",
    "lat": "40.7484468866129",
    "lng": "-73.9902352468194"
  },
  {
    "name": "Trinity Presbyterian Church",
    "group": "CLEAN AND DRY",
    "floor": "Upstairs",
    "postcode": 10019,
    "wheelChair": false,
    "zone": 4,
    "location": "422 W 57TH ST New York NY ",
    "lat": "40.7681070513278",
    "lng": "-73.9863970797226"
  },
  {
    "name": "St. John's Hall",
    "group": "COMMUTERS SPECIAL",
    "floor": "",
    "postcode": 10001,
    "wheelChair": false,
    "zone": 4,
    "location": "211 W 30TH ST New York NY ",
    "lat": "40.7486793956479",
    "lng": "-73.9927286472649"
  },
  {
    "name": "46th Street Club House",
    "group": "D.I.V.A.",
    "floor": "3rd Floor",
    "postcode": 10036,
    "wheelChair": false,
    "zone": 4,
    "location": "252 W 46TH ST New York NY ",
    "lat": "40.7591895426735",
    "lng": "-73.9867385774772"
  },
  {
    "name": "St. Thomas Church",
    "group": "FIFTH AVENUE STEP",
    "floor": "3rd Floor",
    "postcode": 10019,
    "wheelChair": true,
    "zone": 4,
    "location": "1 W 53RD ST New York NY ",
    "lat": "40.7605078757684",
    "lng": "-73.9758124645304"
  },
  {
    "name": "Trinity Presbyterian Church",
    "group": "FIRESIDE",
    "floor": "",
    "postcode": 10019,
    "wheelChair": false,
    "zone": 4,
    "location": "422 W 57TH ST New York NY ",
    "lat": "40.7681070513278",
    "lng": "-73.9863970797226"
  },
  {
    "name": "Fifth Av Presbyterian Church",
    "group": "FOGLIFTERS-FIFTH AVENUE",
    "floor": "5th Floor",
    "postcode": 10019,
    "wheelChair": true,
    "zone": 4,
    "location": "7 W 55TH ST New York NY ",
    "lat": "40.7618390938974",
    "lng": "-73.975091742462"
  },
  {
    "name": "46th Street Club House",
    "group": "FORTY-FIVE SOLUTIONS",
    "floor": "",
    "postcode": 10036,
    "wheelChair": false,
    "zone": 4,
    "location": "252 W 46TH ST New York NY ",
    "lat": "40.7591895426735",
    "lng": "-73.9867385774772"
  },
  {
    "name": "The Actors Fund of America",
    "group": "GREEN ROOM",
    "floor": "10th Floor small conference room",
    "postcode": 10019,
    "wheelChair": true,
    "zone": 4,
    "location": "729 7TH AVE New York NY ",
    "lat": "40.760037679013",
    "lng": "-73.9839212337742"
  },
  {
    "name": "Apartment Building",
    "group": "GRUPO BUENA VOLUNTAD",
    "floor": "",
    "postcode": 10036,
    "wheelChair": false,
    "zone": 4,
    "location": "538 W 47TH ST New York NY ",
    "lat": "40.763245485234",
    "lng": "-73.9944361996955"
  },
  {
    "name": "Mount Sinai - Roosevelt Hospital",
    "group": "HELL'S KITCHEN",
    "floor": "8th Floor (Room #8G49",
    "postcode": 10019,
    "wheelChair": true,
    "zone": 4,
    "location": "1000 TENTH AVE New York NY ",
    "lat": "40.7700536177104",
    "lng": "-73.9877635987168"
  },
  {
    "name": "",
    "group": "HENRY HUDSON",
    "floor": "3rd Floor",
    "postcode": 10036,
    "wheelChair": false,
    "zone": 4,
    "location": "303 W 42ND ST New York NY ",
    "lat": "40.7573472021927",
    "lng": "-73.9898278386809"
  },
  {
    "name": "46th Street Club House",
    "group": "JOE AND CHARLIE CD MEETING",
    "floor": "3rd Floor",
    "postcode": 10036,
    "wheelChair": false,
    "zone": 4,
    "location": "252 W 46TH ST New York NY ",
    "lat": "40.7591895426735",
    "lng": "-73.9867385774772"
  },
  {
    "name": "Upright Citizens Brigade Theatre",
    "group": "LEARNING TO LIVE",
    "floor": "",
    "postcode": 10001,
    "wheelChair": false,
    "zone": 4,
    "location": "307 W 26TH ST New York NY ",
    "lat": "40.7473708388913",
    "lng": "-73.9972612945271"
  },
  {
    "name": "St. Paul's Episcopal Parish House",
    "group": "LUCKY ONES",
    "floor": "",
    "postcode": 10019,
    "wheelChair": true,
    "zone": 4,
    "location": "405 W 59TH ST New York NY ",
    "lat": "40.7697787078634",
    "lng": "-73.9858686267659"
  },
  {
    "name": "",
    "group": "MIDNIGHT IN MIDTOWN",
    "floor": "",
    "postcode": 10036,
    "wheelChair": false,
    "zone": 4,
    "location": "303 W 42ND ST New York NY ",
    "lat": "40.7573472021927",
    "lng": "-73.9898278386809"
  },
  {
    "name": "Trinity Presbyterian Church",
    "group": "MIRACLE",
    "floor": "",
    "postcode": 10019,
    "wheelChair": true,
    "zone": 4,
    "location": "422 W 57TH ST New York NY ",
    "lat": "40.7681070513278",
    "lng": "-73.9863970797226"
  },
  {
    "name": "St. Mary the Virgin Church",
    "group": "MORNING CALL",
    "floor": "3rd Floor",
    "postcode": 10036,
    "wheelChair": false,
    "zone": 4,
    "location": "133 W 46TH ST New York NY ",
    "lat": "40.7578644754971",
    "lng": "-73.9831494978391"
  },
  {
    "name": "St. Mary the Virgin Church",
    "group": "NEW BUT WEST",
    "floor": "2nd & 3rd Floor",
    "postcode": 10036,
    "wheelChair": false,
    "zone": 4,
    "location": "133 W 46TH ST New York NY ",
    "lat": "40.7578644754971",
    "lng": "-73.9831494978391"
  },
  {
    "name": "",
    "group": "NEW PHOENIX",
    "floor": "Room #306",
    "postcode": 10036,
    "wheelChair": false,
    "zone": 4,
    "location": "303 W 42ND ST New York NY ",
    "lat": "40.7573472021927",
    "lng": "-73.9898278386809"
  },
  {
    "name": "Holy Apostles Church Rectory",
    "group": "NINTH AVENUE",
    "floor": "2nd Floor",
    "postcode": 10001,
    "wheelChair": false,
    "zone": 4,
    "location": "296 9TH AVE New York NY ",
    "lat": "40.8228042471098",
    "lng": "-73.8091987304391"
  },
  {
    "name": "St. Francis of Assisi Center",
    "group": "NU GARDEN",
    "floor": "3rd Floor",
    "postcode": 10001,
    "wheelChair": false,
    "zone": 4,
    "location": "139 W 31ST ST New York NY ",
    "lat": "40.7484468866129",
    "lng": "-73.9902352468194"
  },
  {
    "name": "St. Thomas Church",
    "group": "PARK BENCH",
    "floor": "3rd Floor",
    "postcode": 10019,
    "wheelChair": true,
    "zone": 4,
    "location": "1 W 53RD ST New York NY ",
    "lat": "40.7605078757684",
    "lng": "-73.9758124645304"
  },
  {
    "name": "Manhattan Plaza Health Club",
    "group": "POWERLESS",
    "floor": "1st Floor",
    "postcode": 10036,
    "wheelChair": true,
    "zone": 4,
    "location": "484 W 43RD ST New York NY ",
    "lat": "40.7600416876915",
    "lng": "-73.9946015443691"
  },
  {
    "name": "Fifth Av Presbyterian Church",
    "group": "PROMISES",
    "floor": "",
    "postcode": 10019,
    "wheelChair": true,
    "zone": 4,
    "location": "7 W 55TH ST New York NY ",
    "lat": "40.7618390938974",
    "lng": "-73.975091742462"
  },
  {
    "name": "46th Street Club House",
    "group": "PROMISES",
    "floor": "3rd Floor",
    "postcode": 10036,
    "wheelChair": false,
    "zone": 4,
    "location": "252 W 46TH ST New York NY ",
    "lat": "40.7591895426735",
    "lng": "-73.9867385774772"
  },
  {
    "name": "46th Street Club House",
    "group": "RAINBOW ROOM",
    "floor": "3rd Floor",
    "postcode": 10036,
    "wheelChair": false,
    "zone": 4,
    "location": "252 W 46TH ST New York NY ",
    "lat": "40.7591895426735",
    "lng": "-73.9867385774772"
  },
  {
    "name": "The Learning Center",
    "group": "RENAISSANCE",
    "floor": "",
    "postcode": 10017,
    "wheelChair": true,
    "zone": 4,
    "location": "4 W 43RD ST New York NY ",
    "lat": "40.7541070968091",
    "lng": "-73.9805131973307"
  },
  {
    "name": "46th Street Club House",
    "group": "SATURDAY ROTATING 12 STEP",
    "floor": "3rd Floor",
    "postcode": 10036,
    "wheelChair": false,
    "zone": 4,
    "location": "252 W 46TH ST New York NY ",
    "lat": "40.7591895426735",
    "lng": "-73.9867385774772"
  },
  {
    "name": "The Actor's Temple",
    "group": "BETWEEN SHOWS",
    "floor": "",
    "postcode": 10036,
    "wheelChair": false,
    "zone": 4,
    "location": "339 W 47TH ST New York NY ",
    "lat": "40.7609549990382",
    "lng": "-73.9885447699323"
  },
  {
    "name": "Church of The Holy Apostles",
    "group": "SPIRITUAL FRIDAYS",
    "floor": "Rectory",
    "postcode": 10001,
    "wheelChair": false,
    "zone": 4,
    "location": "296 NINTH AVE New York NY ",
    "lat": "40.8228042471098",
    "lng": "-73.8091987304391"
  },
  {
    "name": "St. Thomas Church Parish House",
    "group": "ST. THOMAS A.M.",
    "floor": "3rd Floor",
    "postcode": 10019,
    "wheelChair": false,
    "zone": 4,
    "location": "1 W 53RD ST New York NY ",
    "lat": "40.7605078757684",
    "lng": "-73.9758124645304"
  },
  {
    "name": "St. John the Baptist Church",
    "group": "STATLER AT NOON",
    "floor": "Basement (On Left)",
    "postcode": 10001,
    "wheelChair": false,
    "zone": 4,
    "location": "210 W 31ST ST New York NY ",
    "lat": "40.7491443998598",
    "lng": "-73.9923418714109"
  },
  {
    "name": "Trinity Presbyterian Church",
    "group": "STEPS AND TRADITIONS ON WEDNESDAY",
    "floor": "",
    "postcode": 10019,
    "wheelChair": false,
    "zone": 4,
    "location": "422 W 57TH ST New York NY ",
    "lat": "40.7681070513278",
    "lng": "-73.9863970797226"
  },
  {
    "name": "46th Street Club House",
    "group": "SUNDAY NIGHT BEGINNERS",
    "floor": "3rd Floor",
    "postcode": 10036,
    "wheelChair": false,
    "zone": 4,
    "location": "252 W 46TH ST New York NY ",
    "lat": "40.7591895426735",
    "lng": "-73.9867385774772"
  },
  {
    "name": "",
    "group": "TUESDAY SOBER AGNOSTICS",
    "floor": "",
    "postcode": 10001,
    "wheelChair": true,
    "zone": 4,
    "location": "134 W 29TH ST New York NY ",
    "lat": "40.7469927833142",
    "lng": "-73.9910926609818"
  },
  {
    "name": "Mount Sinai - Roosevelt Hospital",
    "group": "WEST 58th STREET STEP",
    "floor": "8th Fl",
    "postcode": 10019,
    "wheelChair": true,
    "zone": 4,
    "location": "1000 TENTH AVE New York NY ",
    "lat": "40.7700536177104",
    "lng": "-73.9877635987168"
  },
  {
    "name": "GMHC",
    "group": "WOMEN OVER FORTY",
    "floor": "",
    "postcode": 10001,
    "wheelChair": true,
    "zone": 4,
    "location": "446 W 33RD ST New York NY ",
    "lat": "40.7534748563734",
    "lng": "-73.9988113218168"
  },
  {
    "name": "St. Clements Church",
    "group": "YOUNG IN 164",
    "floor": "",
    "postcode": 10036,
    "wheelChair": true,
    "zone": 4,
    "location": "423 W 46TH ST New York NY ",
    "lat": "40.7614822876876",
    "lng": "-73.9917070561952"
  },
  {
    "name": "46th Street Club House",
    "group": "YOUNG PEOPLE'S MEETING",
    "floor": "3rd Floor",
    "postcode": 10036,
    "wheelChair": false,
    "zone": 4,
    "location": "252 W 46TH ST New York NY ",
    "lat": "40.7591895426735",
    "lng": "-73.9867385774772"
  },
  {
    "name": "",
    "group": "AA LITERATURE",
    "floor": "Basement",
    "postcode": 10016,
    "wheelChair": false,
    "zone": 5,
    "location": "122 E 37TH ST New York NY ",
    "lat": "40.7484070354431",
    "lng": "-73.9788161102815"
  },
  {
    "name": "",
    "group": "BREAKFAST CLUB",
    "floor": "",
    "postcode": 10016,
    "wheelChair": false,
    "zone": 5,
    "location": "30 E 35TH ST New York NY ",
    "lat": "40.6540049272587",
    "lng": "-73.9451774713895"
  },
  {
    "name": "Cathedral High School",
    "group": "CARLYLE",
    "floor": "",
    "postcode": 10022,
    "wheelChair": false,
    "zone": 5,
    "location": "350 E 56TH ST New York NY ",
    "lat": "40.7580414144455",
    "lng": "-73.9646083965085"
  },
  {
    "name": "St. Peter's Lutheran Church @ Citicorp Center",
    "group": "CITY GROUP",
    "floor": "Lower Level Music Rooms",
    "postcode": 10022,
    "wheelChair": false,
    "zone": 5,
    "location": "619 LEXINGTON AVE New York NY ",
    "lat": "40.6894",
    "lng": "-73.9368"
  },
  {
    "name": "",
    "group": "COURAGE TO CHANGE",
    "floor": "Basement",
    "postcode": 10016,
    "wheelChair": false,
    "zone": 5,
    "location": "122 E 37TH ST New York NY ",
    "lat": "40.7484070354431",
    "lng": "-73.9788161102815"
  },
  {
    "name": "J.H. Holmes Community House",
    "group": "EMPIRE STATE",
    "floor": "",
    "postcode": 10016,
    "wheelChair": false,
    "zone": 5,
    "location": "28 E 35TH ST New York NY ",
    "lat": "40.6540370303515",
    "lng": "-73.9451809146884"
  },
  {
    "name": "Cathedral High School",
    "group": "GOTHAM",
    "floor": "",
    "postcode": 10022,
    "wheelChair": false,
    "zone": 5,
    "location": "350 E 56TH ST New York NY ",
    "lat": "40.7580414144455",
    "lng": "-73.9646083965085"
  },
  {
    "name": "Soldiers, Sailors, Marines & Airmen's Club",
    "group": "GRAND CENTRAL",
    "floor": "2nd Floor",
    "postcode": 10016,
    "wheelChair": false,
    "zone": 5,
    "location": "283 LEXINGTON AVE New York NY ",
    "lat": "40.7480051470584",
    "lng": "-73.9783823675783"
  },
  {
    "name": "",
    "group": "GRUPO BRASIL",
    "floor": "Basement",
    "postcode": 10016,
    "wheelChair": false,
    "zone": 5,
    "location": "122 E 37TH ST New York NY ",
    "lat": "40.7484070354431",
    "lng": "-73.9788161102815"
  },
  {
    "name": "St. Peter's Lutheran Church @ CitiCorp Center",
    "group": "LIFE LINE",
    "floor": "Lower Level 2 in The Studio",
    "postcode": 10022,
    "wheelChair": true,
    "zone": 5,
    "location": "619 LEXINGTON AVE New York NY ",
    "lat": "40.6894",
    "lng": "-73.9368"
  },
  {
    "name": "Saint Agnes Church",
    "group": "LUNCH BUNCH",
    "floor": "Basement Hall",
    "postcode": 10017,
    "wheelChair": true,
    "zone": 5,
    "location": "141 E 43RD ST New York NY ",
    "lat": "40.7519228249496",
    "lng": "-73.9748688424442"
  },
  {
    "name": "MUSTARD SEED",
    "group": "LUNCHTIME EXPRESS AT THE MUSTARD SEED",
    "floor": "",
    "postcode": 10016,
    "wheelChair": false,
    "zone": 5,
    "location": "122 E 37TH ST New York NY ",
    "lat": "40.6540144942404",
    "lng": "-73.9432341596893"
  },
  {
    "name": "Mustard Seed",
    "group": "MEDITATION SATURDAY NIGHT",
    "floor": "",
    "postcode": 10016,
    "wheelChair": false,
    "zone": 5,
    "location": "122 E 37TH ST New York NY ",
    "lat": "40.6540144942404",
    "lng": "-73.9432341596893"
  },
  {
    "name": "St. Agnes Church",
    "group": "MONDAY MEN",
    "floor": "",
    "postcode": 10017,
    "wheelChair": false,
    "zone": 5,
    "location": "141 E 43RD ST New York NY ",
    "lat": "40.6523881959639",
    "lng": "-73.9371587997014"
  },
  {
    "name": "Church of the Incarnation",
    "group": "MURRAY HILL",
    "floor": "2nd Floor",
    "postcode": 10016,
    "wheelChair": false,
    "zone": 5,
    "location": "209 MADISON AVE New York NY ",
    "lat": "40.7486569855772",
    "lng": "-73.9821268769989"
  },
  {
    "name": "",
    "group": "MUSTARD SEED",
    "floor": "Basement",
    "postcode": 10016,
    "wheelChair": false,
    "zone": 5,
    "location": "122 E 37TH ST New York NY ",
    "lat": "40.7484070354431",
    "lng": "-73.9788161102815"
  },
  {
    "name": "St. Peter's Lutheran Church @ CitiCorp Center",
    "group": "REBELLION DOGS",
    "floor": "Lower Level",
    "postcode": 10022,
    "wheelChair": true,
    "zone": 5,
    "location": "619 LEXINGTON AVE New York NY ",
    "lat": "40.6894",
    "lng": "-73.9368"
  },
  {
    "name": "Church of the Good Shepherd",
    "group": "SATURDAY EAST",
    "floor": "",
    "postcode": 10016,
    "wheelChair": true,
    "zone": 5,
    "location": "240 E 31ST ST New York NY ",
    "lat": "40.7433448015563",
    "lng": "-73.9786012705583"
  },
  {
    "name": "The New York New Church",
    "group": "SATURDAY STEP",
    "floor": "2nd Floor",
    "postcode": 10016,
    "wheelChair": true,
    "zone": 5,
    "location": "114 E 35TH ST New York NY ",
    "lat": "40.6525273050912",
    "lng": "-73.9450186857815"
  },
  {
    "name": "ALL SAINTS CHURCH",
    "group": "SERENITY EAST",
    "floor": "",
    "postcode": 10022,
    "wheelChair": false,
    "zone": 5,
    "location": "230 E 60TH ST New York NY ",
    "lat": "40.7618052824589",
    "lng": "-73.9654716790864"
  },
  {
    "name": "Caron Foundation",
    "group": "SERENITY EAST",
    "floor": "",
    "postcode": 10022,
    "wheelChair": true,
    "zone": 5,
    "location": "244 E 58TH ST New York NY ",
    "lat": "40.7604192581185",
    "lng": "-73.9660691339251"
  },
  {
    "name": "St. Peter's Lutheran Church @ CitiCorp Center",
    "group": "SILKWORTH WOMEN'S",
    "floor": "Lower Level",
    "postcode": 10022,
    "wheelChair": true,
    "zone": 5,
    "location": "619 LEXINGTON AVE New York NY ",
    "lat": "40.6894456672046",
    "lng": "-73.9367719544511"
  },
  {
    "name": "St. Bartholomew's Church",
    "group": "ST. BART'S TWELVE-THIRTIES",
    "floor": "",
    "postcode": 10022,
    "wheelChair": false,
    "zone": 5,
    "location": "325 PARK AVE New York NY ",
    "lat": "40.7574634720886",
    "lng": "-73.9733951693811"
  },
  {
    "name": "CHURCH OF THE GOOD SHEPARD",
    "group": "STRAIGHT 12",
    "floor": "basement",
    "postcode": 10016,
    "wheelChair": false,
    "zone": 5,
    "location": "236 E 31ST ST New York NY ",
    "lat": "40.7433840338795",
    "lng": "-73.9786942806593"
  },
  {
    "name": "Conservative Synagogue",
    "group": "TEMPLETON",
    "floor": "",
    "postcode": 10022,
    "wheelChair": false,
    "zone": 5,
    "location": "308 E 55TH ST New York NY ",
    "lat": "40.6502318973681",
    "lng": "-73.9254638554268"
  },
  {
    "name": "The Caron Foundation",
    "group": "TRAFALGAR",
    "floor": "",
    "postcode": 10022,
    "wheelChair": true,
    "zone": 5,
    "location": "244 E 58TH ST New York NY ",
    "lat": "40.6498884631618",
    "lng": "-73.9225346093351"
  },
  {
    "name": "Caron Foundation",
    "group": "TUDOR",
    "floor": "Lower Level",
    "postcode": 10022,
    "wheelChair": true,
    "zone": 5,
    "location": "244 E 58TH ST New York NY ",
    "lat": "40.6498884631618",
    "lng": "-73.9225346093351"
  },
  {
    "name": "",
    "group": "WOMEN'S ELEVENTH STEP",
    "floor": "",
    "postcode": 10022,
    "wheelChair": true,
    "zone": 5,
    "location": "109 E 50TH ST New York NY ",
    "lat": "40.7570109520275",
    "lng": "-73.9733483642645"
  },
  {
    "name": "Holy Name Church",
    "group": "A NEW DAY",
    "floor": "Basement",
    "postcode": 10025,
    "wheelChair": false,
    "zone": 6,
    "location": "207 W 96TH ST New York NY ",
    "lat": "40.794213540618",
    "lng": "-73.9705213185661"
  },
  {
    "name": "Christ & St. Stephen's Church",
    "group": "A VISION FOR YOU",
    "floor": "Basement",
    "postcode": 10023,
    "wheelChair": false,
    "zone": 6,
    "location": "120 W 69TH ST New York NY ",
    "lat": "40.7755654476221",
    "lng": "-73.9806385532506"
  },
  {
    "name": "Trinity Presbyterian Church",
    "group": "AFTER EIGHT",
    "floor": "",
    "postcode": 10023,
    "wheelChair": false,
    "zone": 6,
    "location": "422 W 57TH ST New York NY ",
    "lat": "40.7681070513278",
    "lng": "-73.9863970797226"
  },
  {
    "name": "Phoenix House",
    "group": "AFTER EIGHT",
    "floor": "1st floor",
    "postcode": 10023,
    "wheelChair": true,
    "zone": 6,
    "location": "164 W 74TH ST New York NY ",
    "lat": "40.7794255507423",
    "lng": "-73.9797175099267"
  },
  {
    "name": "Holy Name Church",
    "group": "ALTERED ATTITUDES",
    "floor": "Little Room Basement",
    "postcode": 10025,
    "wheelChair": false,
    "zone": 6,
    "location": "207 W 96TH ST New York NY ",
    "lat": "40.794213540618",
    "lng": "-73.9705213185661"
  },
  {
    "name": "St. Gregory's Church",
    "group": "AMSTERDAM",
    "floor": "Basement",
    "postcode": 10024,
    "wheelChair": false,
    "zone": 6,
    "location": "144 W 90TH ST New York NY ",
    "lat": "40.7897029664383",
    "lng": "-73.9720897206413"
  },
  {
    "name": "Hamilton House",
    "group": "ANSONIA",
    "floor": "",
    "postcode": 10023,
    "wheelChair": true,
    "zone": 6,
    "location": "141 W 73RD ST New York NY ",
    "lat": "40.7786676707999",
    "lng": "-73.9794206828762"
  },
  {
    "name": "Fourth Universalist Church",
    "group": "ATLANTIC WEST STEP & TRADITION",
    "floor": "",
    "postcode": 10023,
    "wheelChair": false,
    "zone": 6,
    "location": "4 W 76TH IN ST New York NY ",
    "lat": "40.7787527067962",
    "lng": "-73.9741749847811"
  },
  {
    "name": "Church of the Ascension",
    "group": "BLOOMINGDALE",
    "floor": "Basement",
    "postcode": 10025,
    "wheelChair": false,
    "zone": 6,
    "location": "221 W 107TH ST New York NY ",
    "lat": "40.8014194326656",
    "lng": "-73.965712913103"
  },
  {
    "name": "Holy Name Church",
    "group": "BROADWAY AT 96TH",
    "floor": "Basement",
    "postcode": 10025,
    "wheelChair": false,
    "zone": 6,
    "location": "207 W 96TH ST New York NY ",
    "lat": "40.794213540618",
    "lng": "-73.9705213185661"
  },
  {
    "name": "Holy Trinity Rectory",
    "group": "CADILLACS FOR EVERYONE",
    "floor": "",
    "postcode": 10024,
    "wheelChair": true,
    "zone": 6,
    "location": "215 W 82ND ST New York NY ",
    "lat": "40.7852818734432",
    "lng": "-73.9771060064311"
  },
  {
    "name": "Broadway Presbyterian Church",
    "group": "CAMPUS CHEER",
    "floor": "(2nd Red Door)",
    "postcode": 10025,
    "wheelChair": false,
    "zone": 6,
    "location": "601 W 114TH ST New York NY ",
    "lat": "40.806792168115",
    "lng": "-73.9648182706744"
  },
  {
    "name": "Universalist Church",
    "group": "CENTRAL PARK WEST",
    "floor": "",
    "postcode": 10023,
    "wheelChair": false,
    "zone": 6,
    "location": "76TH ST New York NY ",
    "lat": "40.6639307188879",
    "lng": "-73.9382749875207"
  },
  {
    "name": "West Side YMCA at 63rd Street",
    "group": "CHELSEA RIVERSIDE",
    "floor": "Downstairs in large meeting room.",
    "postcode": 10023,
    "wheelChair": true,
    "zone": 6,
    "location": "5 W 63RD ST New York NY ",
    "lat": "40.7706369459873",
    "lng": "-73.9801360925244"
  },
  {
    "name": "Universalist Church",
    "group": "CHOCK FULL OF SOBRIETY",
    "floor": "(In the gym)",
    "postcode": 10023,
    "wheelChair": false,
    "zone": 6,
    "location": "4 W 76TH ST New York NY ",
    "lat": "40.7787527067962",
    "lng": "-73.9741749847811"
  },
  {
    "name": "Fourth Universalist Society",
    "group": "CLASSEN HALL",
    "floor": "Gym basement.",
    "postcode": 10023,
    "wheelChair": false,
    "zone": 6,
    "location": "160 CENTRAL PARK W New York NY ",
    "lat": "40.7787794973326",
    "lng": "-73.9743080403139"
  },
  {
    "name": "Good Shepherd Faith Church",
    "group": "CLASSEN HALL STEP MEETING",
    "floor": "Basement Level Chapel",
    "postcode": 10023,
    "wheelChair": false,
    "zone": 6,
    "location": "152 W 66TH ST New York NY ",
    "lat": "40.7745154157361",
    "lng": "-73.9839560220244"
  },
  {
    "name": "Second Presbyterian Church",
    "group": "COLUMBUS AT FIVE",
    "floor": "Lower Level Auditorium",
    "postcode": 10025,
    "wheelChair": false,
    "zone": 6,
    "location": "3 W 95TH ST New York NY ",
    "lat": "40.7911041586476",
    "lng": "-73.9652137815578"
  },
  {
    "name": "All Angels Church",
    "group": "EIGHTIETH STREET BEGINNERS",
    "floor": "",
    "postcode": 10024,
    "wheelChair": true,
    "zone": 6,
    "location": "251 W 80TH ST New York NY ",
    "lat": "40.7846682032335",
    "lng": "-73.9795816951321"
  },
  {
    "name": "Hargrave House",
    "group": "FAST BREAK",
    "floor": "",
    "postcode": 10023,
    "wheelChair": false,
    "zone": 6,
    "location": "111 W 71ST ST New York NY ",
    "lat": "40.7778588431339",
    "lng": "-73.9817266749472"
  },
  {
    "name": "West Side YMCA",
    "group": "FAST BREAK WEEKEND",
    "floor": "1st Floor",
    "postcode": 10023,
    "wheelChair": true,
    "zone": 6,
    "location": "5 W 63RD ST New York NY ",
    "lat": "40.7706369459873",
    "lng": "-73.9801360925244"
  },
  {
    "name": "West Side YMCA",
    "group": "FIRESIDE",
    "floor": "",
    "postcode": 10023,
    "wheelChair": false,
    "zone": 6,
    "location": "5 W 63RD ST New York NY ",
    "lat": "40.7706369459873",
    "lng": "-73.9801360925244"
  },
  {
    "name": "Holy Name Church",
    "group": "FIRST THINGS FIRST",
    "floor": "Basement",
    "postcode": 10025,
    "wheelChair": false,
    "zone": 6,
    "location": "207 W 96TH ST New York NY ",
    "lat": "40.794213540618",
    "lng": "-73.9705213185661"
  },
  {
    "name": "Church of St. Matthew and St. Timothy",
    "group": "FRIDAY NIGHT STEP",
    "floor": "",
    "postcode": 10024,
    "wheelChair": false,
    "zone": 6,
    "location": "26 W 84TH ST New York NY ",
    "lat": "40.7841938596871",
    "lng": "-73.9710515495699"
  },
  {
    "name": "Holy Name School",
    "group": "GRUPO CAMINO REAL",
    "floor": "Basement",
    "postcode": 10025,
    "wheelChair": false,
    "zone": 6,
    "location": "200 W 97TH ST New York NY ",
    "lat": "40.7946604892952",
    "lng": "-73.9699229082063"
  },
  {
    "name": "Grace House",
    "group": "GRUPO DULCES 24",
    "floor": "Main Floor",
    "postcode": 10025,
    "wheelChair": true,
    "zone": 6,
    "location": "218 W 108TH ST New York NY ",
    "lat": "40.8018805838188",
    "lng": "-73.9653228864665"
  },
  {
    "name": "Iglesia Metodista Grace",
    "group": "GRUPO LUZ DIVINA",
    "floor": "1st Floor",
    "postcode": 10025,
    "wheelChair": true,
    "zone": 6,
    "location": "125 W 104TH ST New York NY ",
    "lat": "40.7987406120379",
    "lng": "-73.9655262153158"
  },
  {
    "name": "Hamilton House",
    "group": "HARGRAVE",
    "floor": "",
    "postcode": 10023,
    "wheelChair": true,
    "zone": 6,
    "location": "141 W 73RD ST New York NY ",
    "lat": "40.7786676707999",
    "lng": "-73.9794206828762"
  },
  {
    "name": "Rutgers Church",
    "group": "LAMBDA WEST",
    "floor": "5th Floor",
    "postcode": 10023,
    "wheelChair": true,
    "zone": 6,
    "location": "236 W 73RD ST New York NY ",
    "lat": "40.7797419736686",
    "lng": "-73.9824391794657"
  },
  {
    "name": "West End Presbyterian Church",
    "group": "MANHATTAN VALLEY",
    "floor": "Basement",
    "postcode": 10025,
    "wheelChair": false,
    "zone": 6,
    "location": "165 W 105TH ST New York NY ",
    "lat": "40.7994268657992",
    "lng": "-73.9651796384307"
  },
  {
    "name": "Holy Name Church",
    "group": "METROPOLIS MEN'S MEETING",
    "floor": "",
    "postcode": 10025,
    "wheelChair": false,
    "zone": 6,
    "location": "207 W 96TH ST New York NY ",
    "lat": "40.794213540618",
    "lng": "-73.9705213185661"
  },
  {
    "name": "Holy Name Church Rectory",
    "group": "MID-DAY CHEER",
    "floor": "Basement",
    "postcode": 10025,
    "wheelChair": false,
    "zone": 6,
    "location": "207 W 96TH ST New York NY ",
    "lat": "40.794213540618",
    "lng": "-73.9705213185661"
  },
  {
    "name": "Advent Lutheran Church",
    "group": "MORNINGSIDE",
    "floor": "Basement",
    "postcode": 10025,
    "wheelChair": true,
    "zone": 6,
    "location": "2504 BROADWAY New York NY ",
    "lat": "40.7928",
    "lng": "-73.9728"
  },
  {
    "name": "Church of Notre Dame",
    "group": "MORNINGSIDE HEIGHTS BEGINNERS",
    "floor": "Merton Room",
    "postcode": 10025,
    "wheelChair": true,
    "zone": 6,
    "location": "405 W 114TH ST New York NY ",
    "lat": "40.8048256658321",
    "lng": "-73.9601273784998"
  },
  {
    "name": "West End Collegiate Church",
    "group": "NEVER TOO LATE",
    "floor": "1st floor",
    "postcode": 10024,
    "wheelChair": false,
    "zone": 6,
    "location": "368 W END AVE New York NY ",
    "lat": "40.7832332498012",
    "lng": "-73.9817586862341"
  },
  {
    "name": "St. Michael's Parish House",
    "group": "NIGHT LIGHT",
    "floor": "1st Floor",
    "postcode": 10025,
    "wheelChair": false,
    "zone": 6,
    "location": "225 W 99TH ST New York NY ",
    "lat": "40.7964563991192",
    "lng": "-73.9698142603959"
  },
  {
    "name": "Anshe Chesed Synagogue",
    "group": "NIGHT LIGHT BEGINNERS",
    "floor": "",
    "postcode": 10025,
    "wheelChair": true,
    "zone": 6,
    "location": "251 W 100TH ST New York NY ",
    "lat": "40.7975126103017",
    "lng": "-73.9703865089032"
  },
  {
    "name": "Holy Name Church",
    "group": "NINETY-SIXTH STREET WORKSHOP",
    "floor": "Basement",
    "postcode": 10025,
    "wheelChair": false,
    "zone": 6,
    "location": "207 W 96TH ST New York NY ",
    "lat": "40.794213540618",
    "lng": "-73.9705213185661"
  },
  {
    "name": "Church of St. Matthew & St. Timothy",
    "group": "OXFORD",
    "floor": "",
    "postcode": 10024,
    "wheelChair": true,
    "zone": 6,
    "location": "26 W 84TH ST New York NY ",
    "lat": "40.7841938596871",
    "lng": "-73.9710515495699"
  },
  {
    "name": "West Side YMCA",
    "group": "PROMISES PROMISES",
    "floor": "Basement",
    "postcode": 10023,
    "wheelChair": false,
    "zone": 6,
    "location": "5 W 63RD ST New York NY ",
    "lat": "40.7706369459873",
    "lng": "-73.9801360925244"
  },
  {
    "name": "St. Ignatius Church",
    "group": "RENEWAL WEST",
    "floor": "Basement",
    "postcode": 10024,
    "wheelChair": false,
    "zone": 6,
    "location": "552 W END AVE New York NY ",
    "lat": "40.7893",
    "lng": "-73.9773"
  },
  {
    "name": "Phoenix House",
    "group": "ROUTES",
    "floor": "1st Floor",
    "postcode": 10024,
    "wheelChair": false,
    "zone": 6,
    "location": "164 W 74 ST New York NY ",
    "lat": "40.7794255507423",
    "lng": "-73.9797175099267"
  },
  {
    "name": "Volunteers of America",
    "group": "RUDE AWAKENING",
    "floor": "Basement",
    "postcode": 10024,
    "wheelChair": false,
    "zone": 6,
    "location": "340 W 85TH ST New York NY ",
    "lat": "40.7886669980932",
    "lng": "-73.979694394257"
  },
  {
    "name": "West End Collegiate Church",
    "group": "SMITHEREENS",
    "floor": "1st Floor",
    "postcode": 10024,
    "wheelChair": false,
    "zone": 6,
    "location": "368 W END AVE New York NY ",
    "lat": "40.7832332498012",
    "lng": "-73.9817586862341"
  },
  {
    "name": "Blessed Sacrament Church Rectory",
    "group": "SOBER STEPPING",
    "floor": "",
    "postcode": 10023,
    "wheelChair": false,
    "zone": 6,
    "location": "152 W 71ST ST New York NY ",
    "lat": "40.7772016417146",
    "lng": "-73.9806325775781"
  },
  {
    "name": "West Side YMCA",
    "group": "SUNDAY MEN'S TOPIC",
    "floor": "",
    "postcode": 10023,
    "wheelChair": false,
    "zone": 6,
    "location": "5 W 63RD ST New York NY ",
    "lat": "40.7706369459873",
    "lng": "-73.9801360925244"
  },
  {
    "name": "",
    "group": "SUNDAY WEST",
    "floor": "3rd Floor",
    "postcode": 10023,
    "wheelChair": false,
    "zone": 6,
    "location": "131 W 72ND ST New York NY ",
    "lat": "40.7778619659525",
    "lng": "-73.9796338969511"
  },
  {
    "name": "Holy Name Church",
    "group": "TURN IT OVER",
    "floor": "Basement",
    "postcode": 10025,
    "wheelChair": false,
    "zone": 6,
    "location": "207 W 96TH ST New York NY ",
    "lat": "40.794213540618",
    "lng": "-73.9705213185661"
  },
  {
    "name": "Blessed Sacrament Church Rectory",
    "group": "WAY OF LIFE",
    "floor": "Ring Bell",
    "postcode": 10023,
    "wheelChair": false,
    "zone": 6,
    "location": "152 W 71ST ST New York NY ",
    "lat": "40.7772016417146",
    "lng": "-73.9806325775781"
  },
  {
    "name": "Stephen Wise Free Synagogue",
    "group": "WE AGNOSTICS OF NYC",
    "floor": "Check security desk for Room #",
    "postcode": 10023,
    "wheelChair": true,
    "zone": 6,
    "location": "30 W 68TH ST New York NY ",
    "lat": "40.7739244423422",
    "lng": "-73.9786943991706"
  },
  {
    "name": "Holy Name Church",
    "group": "WE ARE NOT DOCTORS",
    "floor": "Basement",
    "postcode": 10025,
    "wheelChair": false,
    "zone": 6,
    "location": "207 W 96TH ST New York NY ",
    "lat": "40.794213540618",
    "lng": "-73.9705213185661"
  },
  {
    "name": "Church of St. Paul & St. Andrew",
    "group": "WEST END",
    "floor": "1st Floor",
    "postcode": 10024,
    "wheelChair": true,
    "zone": 6,
    "location": "263 W 86TH ST New York NY ",
    "lat": "40.7885417036581",
    "lng": "-73.9768136256861"
  },
  {
    "name": "Addiction Institute",
    "group": "WESTSIDE 11th STEP MEDITATION WORKSHOP",
    "floor": "2nd Floor",
    "postcode": 10025,
    "wheelChair": false,
    "zone": 6,
    "location": "306 W 102ND ST New York NY ",
    "lat": "40.7990296730168",
    "lng": "-73.970556588718"
  },
  {
    "name": "Blessed Sacrament Church Rectory",
    "group": "WESTSIDE STEP",
    "floor": "",
    "postcode": 10023,
    "wheelChair": false,
    "zone": 6,
    "location": "152 W 71ST ST New York NY ",
    "lat": "40.7772016417146",
    "lng": "-73.9806325775781"
  },
  {
    "name": "Church of St.Matthew & St. Timothy",
    "group": "WESTSIDE YOUNG PEOPLE",
    "floor": "Stanford Room (blue door)",
    "postcode": 10024,
    "wheelChair": false,
    "zone": 6,
    "location": "26 W 84TH ST New York NY ",
    "lat": "40.7841938596871",
    "lng": "-73.9710515495699"
  },
  {
    "name": "Goddard Riverside Community Center",
    "group": "WITHOUT A PRAYER",
    "floor": "",
    "postcode": 10024,
    "wheelChair": true,
    "zone": 6,
    "location": "595 COLUMBUS AVE New York NY ",
    "lat": "40.7879974802396",
    "lng": "-73.9707623416289"
  },
  {
    "name": "Trinity Halfway House",
    "group": "WOMEN LIVING SOBER",
    "floor": "2nd Floor",
    "postcode": 10025,
    "wheelChair": false,
    "zone": 6,
    "location": "306 W 102ND ST New York NY ",
    "lat": "40.7990296730168",
    "lng": "-73.970556588718"
  },
  {
    "name": "Holy Trinity Church",
    "group": "WOMEN WEST AA",
    "floor": "",
    "postcode": 10024,
    "wheelChair": true,
    "zone": 6,
    "location": "213 W 82ND ST New York NY ",
    "lat": "40.7852679542513",
    "lng": "-73.9770730367342"
  },
  {
    "name": "Blessed Sacrament (Rectory)",
    "group": "WOMEN'S BEGINNING LITERATURE",
    "floor": "",
    "postcode": 10023,
    "wheelChair": false,
    "zone": 6,
    "location": "152 W 71ST ST New York NY ",
    "lat": "40.7772016417146",
    "lng": "-73.9806325775781"
  },
  {
    "name": "",
    "group": "WOMEN'S ELEVENTH STEP MEETING",
    "floor": "",
    "postcode": null,
    "wheelChair": true,
    "zone": 6,
    "location": "152 W 71ST ST New York NY ",
    "lat": "40.7772016417146",
    "lng": "-73.9806325775781"
  },
  {
    "name": "Blessed Sacrament (Rectory)",
    "group": "WOMEN'S TELL IT LIKE IT IS",
    "floor": "",
    "postcode": 10023,
    "wheelChair": true,
    "zone": 6,
    "location": "152 W 71ST ST New York NY ",
    "lat": "40.7772016417146",
    "lng": "-73.9806325775781"
  },
  {
    "name": "Universalist Church",
    "group": "WOMEN'S WESTSIDE TOPIC",
    "floor": "Downstairs",
    "postcode": 10023,
    "wheelChair": false,
    "zone": 6,
    "location": "160 CENTRAL PARK W New York NY ",
    "lat": "40.7787794973326",
    "lng": "-73.9743080403139"
  },
  {
    "name": "Holy Name Church",
    "group": "WRITING SOBER",
    "floor": "Basement",
    "postcode": 10025,
    "wheelChair": false,
    "zone": 6,
    "location": "207 W 96TH ST New York NY ",
    "lat": "40.794213540618",
    "lng": "-73.9705213185661"
  },
  {
    "name": "Jan Hus Church",
    "group": "A BAFFLED LOT",
    "floor": "2nd Floor",
    "postcode": 10021,
    "wheelChair": false,
    "zone": 7,
    "location": "351 E 74TH ST New York NY ",
    "lat": "40.7696928502877",
    "lng": "-73.9561615460009"
  },
  {
    "name": "Manhattan Church of Christ",
    "group": "A.A. TRADITIONS AND HISTORY",
    "floor": "2nd Floor Library",
    "postcode": 10021,
    "wheelChair": true,
    "zone": 7,
    "location": "48 E 80TH ST New York NY ",
    "lat": "40.7768220721206",
    "lng": "-73.9614309247863"
  },
  {
    "name": "St. Jean Baptiste Church",
    "group": "ACTIVE",
    "floor": "Basement",
    "postcode": 10021,
    "wheelChair": true,
    "zone": 7,
    "location": "184 E 76TH ST New York NY ",
    "lat": "40.7729024777959",
    "lng": "-73.960301601538"
  },
  {
    "name": "Jan Hus Church",
    "group": "AFTERNOON AWAKENING",
    "floor": "2nd Floor",
    "postcode": 10021,
    "wheelChair": false,
    "zone": 7,
    "location": "351 E 74TH ST New York NY ",
    "lat": "40.7696928502877",
    "lng": "-73.9561615460009"
  },
  {
    "name": "Church of the Epiphany",
    "group": "ATLANTIC ELEVENTH STEP MEDITATION",
    "floor": "",
    "postcode": 10021,
    "wheelChair": false,
    "zone": 7,
    "location": "1393 YORK AVE New York NY ",
    "lat": "40.768423245228",
    "lng": "-73.952835575681"
  },
  {
    "name": "Christ United Methodist Church",
    "group": "ATLANTIC GROUP",
    "floor": "",
    "postcode": 10021,
    "wheelChair": true,
    "zone": 7,
    "location": "520 PARK AVE New York NY ",
    "lat": "40.6968",
    "lng": "-73.955"
  },
  {
    "name": "Archdiocian Cathedral of the Holy Trinity",
    "group": "ATLANTIC GROUP",
    "floor": "",
    "postcode": 10021,
    "wheelChair": true,
    "zone": 7,
    "location": "337 E 74TH ST New York NY ",
    "lat": "40.7698342644291",
    "lng": "-73.9564962732736"
  },
  {
    "name": "All Souls Church",
    "group": "ATLANTIC GROUP",
    "floor": "",
    "postcode": 10075,
    "wheelChair": true,
    "zone": 7,
    "location": "1157 LEXINGTON AVE New York NY ",
    "lat": "40.7754",
    "lng": "-73.9584"
  },
  {
    "name": "Gracie Square Hospital",
    "group": "BREAKING THROUGH",
    "floor": "",
    "postcode": 10021,
    "wheelChair": true,
    "zone": 7,
    "location": "420 E 76TH ST New York NY ",
    "lat": "40.7701096895349",
    "lng": "-73.9536801743601"
  },
  {
    "name": "Our Lady of Good Counsel Church",
    "group": "CAME TO BELIEVE",
    "floor": "Downstairs",
    "postcode": 10128,
    "wheelChair": false,
    "zone": 7,
    "location": "230 E 90TH ST New York NY ",
    "lat": "40.7810111151832",
    "lng": "-73.9514664469095"
  },
  {
    "name": "St. Thomas More Church",
    "group": "CARNEGIE HILL",
    "floor": "Basement",
    "postcode": 10128,
    "wheelChair": false,
    "zone": 7,
    "location": "65 E 89TH ST New York NY ",
    "lat": "40.6512891458602",
    "lng": "-73.9194885249005"
  },
  {
    "name": "St. James Episcopal Church",
    "group": "CENTRAL",
    "floor": "Basement",
    "postcode": 10021,
    "wheelChair": false,
    "zone": 7,
    "location": "865 MADISON AVE New York NY ",
    "lat": "40.771333373478",
    "lng": "-73.9655866478562"
  },
  {
    "name": "Immanuel Lutheran Church",
    "group": "CHAPTER FIVE",
    "floor": "Basement",
    "postcode": 10128,
    "wheelChair": false,
    "zone": 7,
    "location": "1296 LEXINGTON AVE New York NY ",
    "lat": "40.780135833909",
    "lng": "-73.9552304898083"
  },
  {
    "name": "Jan Hus Church",
    "group": "ELEVENTH STEP AT JAN HUS",
    "floor": "Mazaryk Room",
    "postcode": 10021,
    "wheelChair": false,
    "zone": 7,
    "location": "351 E 74TH ST New York NY ",
    "lat": "40.7696928502877",
    "lng": "-73.9561615460009"
  },
  {
    "name": "All Souls Uniterian Church",
    "group": "FEARLESS",
    "floor": "1st Floor",
    "postcode": 10028,
    "wheelChair": false,
    "zone": 7,
    "location": "1157 LEXINGTON AVE New York NY ",
    "lat": "40.7754",
    "lng": "-73.9584"
  },
  {
    "name": "Jan Hus Church",
    "group": "FRIDAY CENTRAL",
    "floor": "Mazaryk Room",
    "postcode": 10021,
    "wheelChair": false,
    "zone": 7,
    "location": "351 E 74TH ST New York NY ",
    "lat": "40.7696928502877",
    "lng": "-73.9561615460009"
  },
  {
    "name": "Jan Hus Church",
    "group": "FRIDAY NIGHT GAY MEN & WOMEN",
    "floor": "2nd Floor",
    "postcode": 10021,
    "wheelChair": false,
    "zone": 7,
    "location": "351 E 74TH ST New York NY ",
    "lat": "40.7696928502877",
    "lng": "-73.9561615460009"
  },
  {
    "name": "St. Thomas More Church Rectory",
    "group": "FRIDAY NIGHT MEN'S STEP",
    "floor": "",
    "postcode": 10128,
    "wheelChair": false,
    "zone": 7,
    "location": "65 E 89TH ST New York NY ",
    "lat": "40.6512891458602",
    "lng": "-73.9194885249005"
  },
  {
    "name": "Church of Saint Thomas Moore",
    "group": "HUMANISTS TOO",
    "floor": "",
    "postcode": 10128,
    "wheelChair": false,
    "zone": 7,
    "location": "65 E 89TH ST New York NY ",
    "lat": "40.7825781068574",
    "lng": "-73.956669661672"
  },
  {
    "name": "Jan Hus Church",
    "group": "I'M ALL IN",
    "floor": "2nd Floor",
    "postcode": 10021,
    "wheelChair": false,
    "zone": 7,
    "location": "351 E 74TH ST New York NY ",
    "lat": "40.7696928502877",
    "lng": "-73.9561615460009"
  },
  {
    "name": "St. Francis de Sales Church",
    "group": "INTO ACTION MANHATTAN",
    "floor": "",
    "postcode": 10128,
    "wheelChair": false,
    "zone": 7,
    "location": "135 E 96TH ST New York NY ",
    "lat": "40.7861511194995",
    "lng": "-73.9513726613579"
  },
  {
    "name": "Jan Hus Presbyterian Church",
    "group": "KITCHEN TABLE MEETING",
    "floor": "2nd Floor Kitchen",
    "postcode": 10021,
    "wheelChair": false,
    "zone": 7,
    "location": "351 E 74TH ST New York NY ",
    "lat": "40.7696928502877",
    "lng": "-73.9561615460009"
  },
  {
    "name": "Church of the Heavenly Rest",
    "group": "LENOX HILL",
    "floor": "",
    "postcode": 10128,
    "wheelChair": false,
    "zone": 7,
    "location": "2 E 90TH ST New York NY ",
    "lat": "40.7840115307841",
    "lng": "-73.9585847103751"
  },
  {
    "name": "All Souls Uniterian Church",
    "group": "LEX 80 STEP",
    "floor": "",
    "postcode": 10028,
    "wheelChair": true,
    "zone": 7,
    "location": "1157 LEXINGTON AVE New York NY ",
    "lat": "40.7754",
    "lng": "-73.9584"
  },
  {
    "name": "Gracie Square Hospital",
    "group": "LIVE AND LET LIVE",
    "floor": "",
    "postcode": 10021,
    "wheelChair": true,
    "zone": 7,
    "location": "420 E 76TH ST New York NY ",
    "lat": "40.7701096895349",
    "lng": "-73.9536801743601"
  },
  {
    "name": "Jan Hus Presbyterian Church",
    "group": "MADISON 73",
    "floor": "2nd Floor",
    "postcode": 10021,
    "wheelChair": false,
    "zone": 7,
    "location": "351 E 74TH ST New York NY ",
    "lat": "40.7696928502877",
    "lng": "-73.9561615460009"
  },
  {
    "name": "Jan Hus Church",
    "group": "MEDITATION",
    "floor": "2nd Floor Chapel Room",
    "postcode": 10021,
    "wheelChair": false,
    "zone": 7,
    "location": "351 E 74TH ST New York NY ",
    "lat": "40.7696928502877",
    "lng": "-73.9561615460009"
  },
  {
    "name": "Philomathist Center",
    "group": "MEN'S NYC BIG BOOK STEP STUDY",
    "floor": "",
    "postcode": 10128,
    "wheelChair": false,
    "zone": 7,
    "location": "1285 MADISON AVE New York NY ",
    "lat": "40.7843",
    "lng": "-73.9561"
  },
  {
    "name": "St. Ignatius Loyola School",
    "group": "METROPOLITAN",
    "floor": "",
    "postcode": 10028,
    "wheelChair": true,
    "zone": 7,
    "location": "48 E 84TH ST New York NY ",
    "lat": "40.7735235669923",
    "lng": "-73.9452817636618"
  },
  {
    "name": "St. Stephen of Hungary Church",
    "group": "MONDAY EAST TOPIC",
    "floor": "Rectory",
    "postcode": 10028,
    "wheelChair": false,
    "zone": 7,
    "location": "408 E 82ND ST New York NY ",
    "lat": "40.7741274706806",
    "lng": "-73.9511027458637"
  },
  {
    "name": "Jan Hus Church",
    "group": "MONDAY WOMEN",
    "floor": "2nd Floor Front Room",
    "postcode": 10021,
    "wheelChair": false,
    "zone": 7,
    "location": "351 E 74TH ST New York NY ",
    "lat": "40.7696928502877",
    "lng": "-73.9561615460009"
  },
  {
    "name": "Jan Hus Church",
    "group": "MORNING REFLECTIONS",
    "floor": "2nd Floor - Front Room",
    "postcode": 10021,
    "wheelChair": false,
    "zone": 7,
    "location": "351 E 74TH ST New York NY ",
    "lat": "40.7696928502877",
    "lng": "-73.9561615460009"
  },
  {
    "name": "Congregational Kehilath Jeshurun",
    "group": "NEW CHOICES",
    "floor": "Ramaz School Entrance",
    "postcode": 10028,
    "wheelChair": true,
    "zone": 7,
    "location": "125 E 85TH ST New York NY ",
    "lat": "40.779171458173",
    "lng": "-73.9566990114508"
  },
  {
    "name": "Jan Hus Church",
    "group": "OPEN BOOK",
    "floor": "2nd Floor",
    "postcode": 10021,
    "wheelChair": false,
    "zone": 7,
    "location": "351 E 74TH ST New York NY ",
    "lat": "40.7696928502877",
    "lng": "-73.9561615460009"
  },
  {
    "name": "Jan Hus Church",
    "group": "OUR PRIMARY PURPOSE",
    "floor": "2nd Floor Kitchen",
    "postcode": 10021,
    "wheelChair": false,
    "zone": 7,
    "location": "351 E 74TH ST New York NY ",
    "lat": "40.7696928502877",
    "lng": "-73.9561615460009"
  },
  {
    "name": "St. James Church",
    "group": "PARK BENCH",
    "floor": "3rd Floor",
    "postcode": 10021,
    "wheelChair": true,
    "zone": 7,
    "location": "865 MADISON AVE New York NY ",
    "lat": "40.7713",
    "lng": "-73.9656"
  },
  {
    "name": "Brick Church Parish House",
    "group": "PARK MADISON",
    "floor": "Basement",
    "postcode": 10128,
    "wheelChair": true,
    "zone": 7,
    "location": "62 E 92ND ST New York NY ",
    "lat": "40.7843589236057",
    "lng": "-73.95552298444"
  },
  {
    "name": "Jan Hus Church",
    "group": "PERSEVERANCE",
    "floor": "2nd Floor Front Room",
    "postcode": 10021,
    "wheelChair": false,
    "zone": 7,
    "location": "351 E 74TH ST New York NY ",
    "lat": "40.7696928502877",
    "lng": "-73.9561615460009"
  },
  {
    "name": "St. Joseph's School",
    "group": "RECOVERY ROOM",
    "floor": "Basement",
    "postcode": 10128,
    "wheelChair": false,
    "zone": 7,
    "location": "420 E 87TH ST New York NY ",
    "lat": "40.7772735074771",
    "lng": "-73.9484486458256"
  },
  {
    "name": "Central Presbyterian Church",
    "group": "RENEWAL EAST",
    "floor": "5th Floor Library",
    "postcode": 10128,
    "wheelChair": true,
    "zone": 7,
    "location": "593 PARK AVE New York NY ",
    "lat": "40.7658",
    "lng": "-73.9673"
  },
  {
    "name": "St. Thomas More Church",
    "group": "RENEWAL NORTH",
    "floor": "Ring Red Buzzer",
    "postcode": 10128,
    "wheelChair": true,
    "zone": 7,
    "location": "65 E 89TH ST New York NY ",
    "lat": "40.6512891458602",
    "lng": "-73.9194885249005"
  },
  {
    "name": "St. James Episcopal Church",
    "group": "RHINELANDER",
    "floor": "Basement",
    "postcode": 10021,
    "wheelChair": false,
    "zone": 7,
    "location": "865 MADISON AVE New York NY ",
    "lat": "40.7713",
    "lng": "-73.9656"
  },
  {
    "name": "",
    "group": "ROOSEVELT ISLAND SERENITY",
    "floor": "Basement 10044",
    "postcode": 10044,
    "wheelChair": true,
    "zone": 7,
    "location": "543 MAIN ST New York NY ",
    "lat": "40.5015308291755",
    "lng": "-74.2441188807621"
  },
  {
    "name": "St. Monica's Church",
    "group": "SEVENTY-NINTH STREET WORKSHOP",
    "floor": "Basement",
    "postcode": 10021,
    "wheelChair": false,
    "zone": 7,
    "location": "413 E 79TH ST New York NY ",
    "lat": "40.7723031543769",
    "lng": "-73.9523668002645"
  },
  {
    "name": "Jan Hus Church",
    "group": "SOBER WOMEN",
    "floor": "Sanctuary",
    "postcode": 10021,
    "wheelChair": false,
    "zone": 7,
    "location": "351 E 74TH ST New York NY ",
    "lat": "40.7696928502877",
    "lng": "-73.9561615460009"
  },
  {
    "name": "New York Blood Center",
    "group": "STEP BY STEP",
    "floor": "Auditorium",
    "postcode": 10065,
    "wheelChair": true,
    "zone": 7,
    "location": "310 E 67TH ST New York NY ",
    "lat": "40.7654252580644",
    "lng": "-73.9604736729911"
  },
  {
    "name": "Lenox Hill Neighborhood House",
    "group": "SUNDAY ON 70TH",
    "floor": "",
    "postcode": 10021,
    "wheelChair": false,
    "zone": 7,
    "location": "331 E 70TH ST New York NY ",
    "lat": "40.7672680018812",
    "lng": "-73.9585554286266"
  },
  {
    "name": "Church of St. Catherine of Siena",
    "group": "SUTTON",
    "floor": "",
    "postcode": 10021,
    "wheelChair": true,
    "zone": 7,
    "location": "411 E 68TH ST New York NY ",
    "lat": "40.7652239673107",
    "lng": "-73.9575950012117"
  },
  {
    "name": "Church of the Heavenly Rest",
    "group": "THREE TWELVES",
    "floor": "Basement",
    "postcode": 10128,
    "wheelChair": false,
    "zone": 7,
    "location": "2 E 90TH ST New York NY ",
    "lat": "40.7840115307841",
    "lng": "-73.9585847103751"
  },
  {
    "name": "Holy Trinity Church",
    "group": "TRINITY",
    "floor": "Choir Room (Ring Bell)",
    "postcode": 10128,
    "wheelChair": false,
    "zone": 7,
    "location": "341 E 87TH ST New York NY ",
    "lat": "40.646564825294",
    "lng": "-73.9166804813545"
  },
  {
    "name": "Jan Hus Church",
    "group": "WE HUMANISTS",
    "floor": "2nd Floor Museum Room",
    "postcode": 10021,
    "wheelChair": false,
    "zone": 7,
    "location": "351 E 74TH ST New York NY ",
    "lat": "40.7696928502877",
    "lng": "-73.9561615460009"
  },
  {
    "name": "Jan Hus Church",
    "group": "WEDNESDAY EAST ON THURSDAY",
    "floor": "2nd Floor Kitchen",
    "postcode": 10021,
    "wheelChair": false,
    "zone": 7,
    "location": "351 E 74TH ST New York NY ",
    "lat": "40.7696928502877",
    "lng": "-73.9561615460009"
  },
  {
    "name": "Jan Hus Church",
    "group": "YORKVILLE-BUTTERFIELD",
    "floor": "2nd Floor",
    "postcode": 10021,
    "wheelChair": false,
    "zone": 7,
    "location": "351 E 74TH ST New York NY ",
    "lat": "40.7696928502877",
    "lng": "-73.9561615460009"
  },
  {
    "name": "SRO Building",
    "group": "A CHANCE TO LIVE AGAIN",
    "floor": "Basement",
    "postcode": 10027,
    "wheelChair": true,
    "zone": 8,
    "location": "109 W 129TH ST New York NY ",
    "lat": "40.8105033439451",
    "lng": "-73.9438349756133"
  },
  {
    "name": "Union Baptist Church",
    "group": "AA IT WORKS  II",
    "floor": "",
    "postcode": 10039,
    "wheelChair": true,
    "zone": 8,
    "location": "240 W 145TH ST New York NY ",
    "lat": "40.8220449603096",
    "lng": "-73.9402738669626"
  },
  {
    "name": "Our Lady of Lourdes Church",
    "group": "ATTITUDE ADJUSTMENT",
    "floor": "Basement",
    "postcode": 10031,
    "wheelChair": false,
    "zone": 8,
    "location": "469 W 142ND ST New York NY ",
    "lat": "40.8232200234845",
    "lng": "-73.9485449135295"
  },
  {
    "name": "St. Phillip Church",
    "group": "CONVENT",
    "floor": "1st Floor",
    "postcode": 10030,
    "wheelChair": false,
    "zone": 8,
    "location": "204 W 134TH ST New York NY ",
    "lat": "40.8146053686072",
    "lng": "-73.9443570754889"
  },
  {
    "name": "Spiritual Renewal Church",
    "group": "FELLOWSHIP AT NOON",
    "floor": "",
    "postcode": 10027,
    "wheelChair": false,
    "zone": 8,
    "location": "2044 ADAM CLAYTON POWELL BLVD New York NY ",
    "lat": "40.8072665297278",
    "lng": "-73.9499061022154"
  },
  {
    "name": "",
    "group": "GRUPO TRASMITELO",
    "floor": "1st Floor",
    "postcode": 10031,
    "wheelChair": false,
    "zone": 8,
    "location": "469 W 142ND ST New York NY ",
    "lat": "40.8232200234845",
    "lng": "-73.9485449135295"
  },
  {
    "name": "St. Mary's Episcopal",
    "group": "HARLEM HUMANISTS",
    "floor": "",
    "postcode": 10027,
    "wheelChair": true,
    "zone": 8,
    "location": "521 W 126TH ST New York NY ",
    "lat": "40.8144929933342",
    "lng": "-73.9558896362264"
  },
  {
    "name": "SRO Building Community Room",
    "group": "K.I.S.S.",
    "floor": "Basement",
    "postcode": 10027,
    "wheelChair": true,
    "zone": 8,
    "location": "109 W 129TH ST New York NY ",
    "lat": "40.8105033439451",
    "lng": "-73.9438349756133"
  },
  {
    "name": "Our Lady of Lourdes",
    "group": "LEARNING TO LIVE SOBER",
    "floor": "Basement",
    "postcode": 10031,
    "wheelChair": false,
    "zone": 8,
    "location": "469 W 142ND ST New York NY ",
    "lat": "40.8232200234845",
    "lng": "-73.9485449135295"
  },
  {
    "name": "",
    "group": "LIVING CLEAN AND SOBER ON 121st STREET",
    "floor": "",
    "postcode": 10027,
    "wheelChair": true,
    "zone": 8,
    "location": "2044 SEVENTH AVE New York NY ",
    "lat": "40.8071759186691",
    "lng": "-73.9497519327616"
  },
  {
    "name": "S.A.G.E.",
    "group": "MEDITATION COMES TO HARLEM",
    "floor": "",
    "postcode": 10027,
    "wheelChair": true,
    "zone": 8,
    "location": "127 W 127TH ST New York NY ",
    "lat": "40.8094766772235",
    "lng": "-73.9452613355488"
  },
  {
    "name": "Grace Congregational Baptist Church",
    "group": "MID-HARLEM",
    "floor": "Basement",
    "postcode": 10037,
    "wheelChair": false,
    "zone": 8,
    "location": "310 W 139TH ST New York NY ",
    "lat": "40.8190256453939",
    "lng": "-73.9448681362397"
  },
  {
    "name": "St. James Church",
    "group": "MONDAY NIGHT CHALLENGE",
    "floor": "Basement",
    "postcode": 10031,
    "wheelChair": false,
    "zone": 8,
    "location": "409 W 141ST ST New York NY ",
    "lat": "40.8215326572652",
    "lng": "-73.9464830279892"
  },
  {
    "name": "Riverside Church",
    "group": "PRIMARY PURPOSE",
    "floor": "4th Floor",
    "postcode": 10027,
    "wheelChair": true,
    "zone": 8,
    "location": "91 CLAREMONT AVE New York NY ",
    "lat": "40.8119642222478",
    "lng": "-73.9625130600971"
  },
  {
    "name": "Upper Manhattan Mental Health Center",
    "group": "PROMISES TWO FOR ONE",
    "floor": "1st Floor in the rear.",
    "postcode": 10031,
    "wheelChair": true,
    "zone": 8,
    "location": "1727 AMSTERDAM AVE New York NY ",
    "lat": "40.8255371320577",
    "lng": "-73.9471630832303"
  },
  {
    "name": "Our Lady of Lourdes Church",
    "group": "REALITY CHECK",
    "floor": "Basement",
    "postcode": 10037,
    "wheelChair": false,
    "zone": 8,
    "location": "469 W 142ND ST New York NY ",
    "lat": "40.8232200234845",
    "lng": "-73.9485449135295"
  },
  {
    "name": "Riverside Church",
    "group": "RIVERSIDE",
    "floor": "@ The Cloisters Club Room",
    "postcode": 10027,
    "wheelChair": true,
    "zone": 8,
    "location": "91 CLAREMONT AVE New York NY ",
    "lat": "40.8119642222478",
    "lng": "-73.9625130600971"
  },
  {
    "name": "St. Aloysius School",
    "group": "RIVERTON",
    "floor": "Cafeteria",
    "postcode": 10027,
    "wheelChair": false,
    "zone": 8,
    "location": "219 W 132ND ST New York NY ",
    "lat": "40.8136938017217",
    "lng": "-73.9455988432903"
  },
  {
    "name": "Salem United Methodist Church Community Center",
    "group": "SALEM",
    "floor": "Downstairs in the Gym",
    "postcode": 10027,
    "wheelChair": true,
    "zone": 8,
    "location": "211 W 129TH ST New York NY ",
    "lat": "40.811646918986",
    "lng": "-73.9465692736586"
  },
  {
    "name": "Convent Baptist Church Education Building",
    "group": "SOBER ADULT MEN",
    "floor": "1st Floor",
    "postcode": 10031,
    "wheelChair": true,
    "zone": 8,
    "location": "425 W 144TH ST New York NY ",
    "lat": "40.8238859925299",
    "lng": "-73.9462723904462"
  },
  {
    "name": "St. Phillip's Church",
    "group": "ST. NICHOLAS",
    "floor": "Basement",
    "postcode": 10030,
    "wheelChair": true,
    "zone": 8,
    "location": "204 W 134TH ST New York NY ",
    "lat": "40.8146053686072",
    "lng": "-73.9443570754889"
  },
  {
    "name": "Harlem Hospital King Pavilion",
    "group": "STEPS 3 and 11",
    "floor": "Room #3101",
    "postcode": 10037,
    "wheelChair": true,
    "zone": 8,
    "location": "506 LENOX AVE New York NY ",
    "lat": "40.8143540280369",
    "lng": "-73.9403080272408"
  },
  {
    "name": "Council Center for Problems of Living",
    "group": "SUGAR HILL",
    "floor": "1st floor in the rear",
    "postcode": 10031,
    "wheelChair": true,
    "zone": 8,
    "location": "1727 AMSTERDAM AVE New York NY ",
    "lat": "40.8255371320577",
    "lng": "-73.9471630832303"
  },
  {
    "name": "Our Lady of Lourdes Church",
    "group": "UPTOWN BIG BOOK WORKSHOP",
    "floor": "Basement",
    "postcode": 10031,
    "wheelChair": false,
    "zone": 8,
    "location": "469 W 142ND ST New York NY ",
    "lat": "40.8232200234845",
    "lng": "-73.9485449135295"
  },
  {
    "name": "",
    "group": "TUESDAY BIG BOOK STUDY",
    "floor": "Basment",
    "postcode": 10031,
    "wheelChair": false,
    "zone": 8,
    "location": "1854 AMSTERDAM AVE New York NY ",
    "lat": "40.8302",
    "lng": "-73.9442"
  },
  {
    "name": "Harlem Children's Zone Admin. Offices",
    "group": "125",
    "floor": "1st Floor Conference Room",
    "postcode": 10035,
    "wheelChair": true,
    "zone": 9,
    "location": "35 E 125 ST New York NY ",
    "lat": "40.8059276652577",
    "lng": "-73.9408673127926"
  },
  {
    "name": "Metropolitan AME Church",
    "group": "YOU MAY CARE AFTER",
    "floor": "",
    "postcode": 10037,
    "wheelChair": true,
    "zone": 8,
    "location": "5866 W 135TH ST New York NY ",
    "lat": "40.6639307188879",
    "lng": "-73.9382749875207"
  },
  {
    "name": "Peter Jay Sharpe Building",
    "group": "EAST HARLEM",
    "floor": "1st Floor Dining Room",
    "postcode": 10035,
    "wheelChair": true,
    "zone": 9,
    "location": "223 E 117TH ST New York NY ",
    "lat": "40.7984929663362",
    "lng": "-73.9389774473402"
  },
  {
    "name": "",
    "group": "GRUPO NUEVA VIDA",
    "floor": "1st Floor",
    "postcode": 10029,
    "wheelChair": true,
    "zone": 9,
    "location": "2126 2ND AVE New York NY ",
    "lat": "40.7926447124665",
    "lng": "-73.940850658861"
  },
  {
    "name": "Veterans Residence",
    "group": "HARLEM 1 PM RECOVERY",
    "floor": "1st Floor Cafeteria",
    "postcode": 10035,
    "wheelChair": true,
    "zone": 9,
    "location": "22 E 119TH ST New York NY ",
    "lat": "40.8021918133913",
    "lng": "-73.9443165073746"
  },
  {
    "name": "Columbia Presbyterian Hospital",
    "group": "A NEW WAY OF LIVING",
    "floor": "",
    "postcode": 10032,
    "wheelChair": true,
    "zone": 10,
    "location": "701 W 168TH STREET FORT WASHINGTON AVE New York NY ",
    "lat": "40.8421349959684",
    "lng": "-73.9420058396877"
  },
  {
    "name": "Holy Rood Church",
    "group": "BRIDGE TO SOBRIETY",
    "floor": "",
    "postcode": 10033,
    "wheelChair": false,
    "zone": 10,
    "location": "715 W 179TH ST New York NY ",
    "lat": "40.8490796467369",
    "lng": "-73.9373313893221"
  },
  {
    "name": "Holy Rood Church",
    "group": "BRIDGE TO SOBRIETY",
    "floor": "",
    "postcode": 10040,
    "wheelChair": true,
    "zone": 10,
    "location": "715 W 179TH ST New York NY ",
    "lat": "40.8490796467369",
    "lng": "-73.9373313893221"
  },
  {
    "name": "St. Jude's School",
    "group": "DYCKMAN",
    "floor": "Basement",
    "postcode": 10034,
    "wheelChair": false,
    "zone": 10,
    "location": "431 W 204TH ST New York NY ",
    "lat": "40.8620966104922",
    "lng": "-73.9190004613749"
  },
  {
    "name": "Church of the Intercession",
    "group": "FOUND-A-WAY",
    "floor": "2nd Floor Guild Room",
    "postcode": 10032,
    "wheelChair": false,
    "zone": 10,
    "location": "550 W 155TH ST New York NY ",
    "lat": "40.8320961144213",
    "lng": "-73.944465684352"
  },
  {
    "name": "Casita Esperanza",
    "group": "GRUPO DESPERTAR",
    "floor": "",
    "postcode": 10032,
    "wheelChair": true,
    "zone": 10,
    "location": "557 W 156TH ST New York NY ",
    "lat": "40.8330065334804",
    "lng": "-73.9440819529521"
  },
  {
    "name": "",
    "group": "GRUPO LA FLAMA PANAMERICANA",
    "floor": "Basement",
    "postcode": 10040,
    "wheelChair": true,
    "zone": 10,
    "location": "35 THAYER ST New York NY ",
    "lat": "40.8626229492642",
    "lng": "-73.9263833803336"
  },
  {
    "name": "Episcopal Holy Rood Church",
    "group": "GRUPO LIBERTAD",
    "floor": "1st Floor",
    "postcode": 10033,
    "wheelChair": true,
    "zone": 10,
    "location": "715 W 179TH ST New York NY ",
    "lat": "40.8490796467369",
    "lng": "-73.9373313893221"
  },
  {
    "name": "Church Santa Rosa de Lima",
    "group": "GRUPO RECUPERACION",
    "floor": "Basement",
    "postcode": 10032,
    "wheelChair": false,
    "zone": 10,
    "location": "502 WEST165TH ST New York NY ",
    "lat": "40.6639307188879",
    "lng": "-73.9382749875207"
  },
  {
    "name": "Our Lady Queen of Martyrs",
    "group": "GRUPO UN NUEVO AMANECER",
    "floor": "",
    "postcode": 10034,
    "wheelChair": false,
    "zone": 10,
    "location": "91 ARDEN ST New York NY ",
    "lat": "40.8639155612836",
    "lng": "-73.9282546578791"
  },
  {
    "name": "Holy Trinity Episcopal Church",
    "group": "HAPPY DESTINY",
    "floor": "",
    "postcode": 10034,
    "wheelChair": false,
    "zone": 10,
    "location": "20 CUMMING ST New York NY ",
    "lat": "40.8664805601797",
    "lng": "-73.9264534882199"
  },
  {
    "name": "Mount Washington Presbyterian Church",
    "group": "INWOOD FORT TRYON",
    "floor": "",
    "postcode": 10034,
    "wheelChair": false,
    "zone": 10,
    "location": "84 VERMILYEA AVE New York NY ",
    "lat": "40.8659683152661",
    "lng": "-73.923146151519"
  },
  {
    "name": "Church of the Good Shepherd",
    "group": "ISHAM PARK",
    "floor": "",
    "postcode": 10034,
    "wheelChair": false,
    "zone": 10,
    "location": "620 ISHAM ST New York NY ",
    "lat": "40.8692532379724",
    "lng": "-73.9206625253877"
  },
  {
    "name": "COATHA Church on the Hill Senior Center",
    "group": "PROGRESS NOT PERFECTION",
    "floor": "",
    "postcode": 10032,
    "wheelChair": true,
    "zone": 10,
    "location": "2005 AMSTERDAM AVE New York NY ",
    "lat": "40.8343",
    "lng": "-73.9408"
  },
  {
    "name": "Our Saviour's Atonement Lutheran Church",
    "group": "THE MEN UPSTAIRS",
    "floor": "2nd Floor (Lorenz Library)",
    "postcode": 10040,
    "wheelChair": false,
    "zone": 10,
    "location": "178 BENNETT AVE New York NY ",
    "lat": "40.8560152221363",
    "lng": "-73.9342776437758"
  },
  {
    "name": "Our Saviour's Atonement Church",
    "group": "THE MISSING LINK",
    "floor": "2nd Floor",
    "postcode": 10040,
    "wheelChair": false,
    "zone": 10,
    "location": "178 BENNETT AVE New York NY ",
    "lat": "40.856",
    "lng": "-73.9343"
  },
  {
    "name": "Our Lady Queen of Martyrs",
    "group": "UPPER MANHATTAN",
    "floor": "",
    "postcode": 10034,
    "wheelChair": false,
    "zone": 10,
    "location": "91 ARDEN ST New York NY ",
    "lat": "40.8639",
    "lng": "-73.9283"
  },
  {
    "name": "Holy Trinity Church",
    "group": "UPTOWN SATURDAY NIGHT",
    "floor": "",
    "postcode": 10034,
    "wheelChair": false,
    "zone": 10,
    "location": "20 CUMMINGS ST New York NY ",
    "lat": "40.8665",
    "lng": "-73.9265"
  },
  {
    "name": "Holy Rood Church",
    "group": "WASHINGTON HEIGHTS",
    "floor": "",
    "postcode": 10033,
    "wheelChair": true,
    "zone": 10,
    "location": "715 W 179TH ST New York NY ",
    "lat": "40.8490796467369",
    "lng": "-73.9373313893221"
  },
  {
    "name": "Cornerstone Center",
    "group": "WASHINGTON HEIGHTS",
    "floor": "Kitchen",
    "postcode": 10040,
    "wheelChair": false,
    "zone": 10,
    "location": "189TH STREET BENNETT AVE New York NY ",
    "lat": "40.6639307188879",
    "lng": "-73.9382749875207"
  },
  {
    "name": "The Corner Stone Center",
    "group": "WHAT WE ARE LIKE NOW",
    "floor": "2nd Floor",
    "postcode": 10040,
    "wheelChair": false,
    "zone": 10,
    "location": "178 BENNETT AVE New York NY ",
    "lat": "40.856",
    "lng": "-73.9343"
  },
  {
    "name": "Cornerstone Center",
    "group": "WOMEN'S NITE",
    "floor": "Kitchen",
    "postcode": 10040,
    "wheelChair": false,
    "zone": 10,
    "location": "178 BENNETT AVE New York NY ",
    "lat": "40.8560152221363",
    "lng": "-73.9342776437758"
  }
]